{"type": "FeatureCollection", "features": [{"type": "Feature", "properties": {"name": "Şehitkamil"}, "geometry": {"type": "MultiPolygon", "coordinates": [[[[37.0045173, 37.1737479], [37.0051718, 37.1763809], [37.0047212, 37.179672], [37.0030367, 37.1813303], [36.9989383, 37.1821766], [36.9980371, 37.1830912], [36.9962883, 37.1848862], [36.9972002, 37.1868692], [36.9989812, 37.189818], [37.0008373, 37.1916812], [37.0016849, 37.1935273], [37.001127, 37.1972706], [37.0007944, 37.1996122], [37.0031011, 37.205483], [37.0034122, 37.2092428], [37.0045602, 37.2143353], [37.0090234, 37.2134296], [37.0122957, 37.2134382], [37.0155787, 37.2144977], [37.0170593, 37.2155059], [37.0186257, 37.2154888], [37.0201278, 37.2153094], [37.0209002, 37.2173685], [37.0317577, 37.2073288], [37.0599103, 37.198561], [37.0757139, 37.2044234], [37.0773232, 37.2009453], [37.0773768, 37.2007317], [37.0774841, 37.2006462], [37.0800376, 37.1949375], [37.0929538, 37.2100107], [37.0929766, 37.2099488], [37.0949238, 37.2124257], [37.0976812, 37.2151427], [37.0989954, 37.2167447], [37.0993012, 37.2180391], [37.1000951, 37.2187696], [37.1004921, 37.2188679], [37.1201742, 37.2420306], [37.1219551, 37.2476931], [37.1126425, 37.2501698], [37.1115696, 37.2524244], [37.1109259, 37.2537736], [37.1149921, 37.2557121], [37.115078, 37.2576933], [37.1153247, 37.2588717], [37.1203673, 37.259256], [37.1232104, 37.2612285], [37.1267187, 37.2630046], [37.1285534, 37.2646098], [37.1302593, 37.2657113], [37.1324694, 37.265882], [37.1342718, 37.2671457], [37.1356988, 37.2673506], [37.1371901, 37.2667273], [37.1390033, 37.263995], [37.140795, 37.2635083], [37.1448183, 37.2630985], [37.147243, 37.2631753], [37.1489596, 37.2629362], [37.1518028, 37.2636023], [37.1530366, 37.2632692], [37.1540022, 37.262552], [37.1554184, 37.2600672], [37.1571886, 37.2596488], [37.1585619, 37.2597769], [37.1590662, 37.2598879], [37.1596777, 37.2604258], [37.1610188, 37.2620311], [37.1617269, 37.2625435], [37.1640122, 37.2629533], [37.1650958, 37.262996], [37.1652353, 37.2635937], [37.1654713, 37.264089], [37.1658146, 37.2643622], [37.1665227, 37.2646525], [37.1665871, 37.2649087], [37.1667588, 37.2652417], [37.1669519, 37.2654722], [37.1674347, 37.2656771], [37.1679819, 37.2657113], [37.1685612, 37.2658137], [37.1687007, 37.2661126], [37.1687329, 37.2665993], [37.1689582, 37.2668298], [37.1698272, 37.2667615], [37.1700525, 37.2670091], [37.1703529, 37.2677519], [37.1708679, 37.2681447], [37.1726918, 37.2686228], [37.1728098, 37.2688875], [37.1727884, 37.2690668], [37.1727455, 37.2693827], [37.1726811, 37.2697754], [37.172842, 37.270117], [37.1734106, 37.2709537], [37.1734857, 37.271594], [37.1737218, 37.2725502], [37.1747088, 37.2734381], [37.1755671, 37.274215], [37.1755671, 37.2746078], [37.1759105, 37.2751798], [37.1762967, 37.2755895], [37.1776593, 37.2762213], [37.1783245, 37.2766823], [37.1787751, 37.2773311], [37.1788502, 37.2779458], [37.1792257, 37.2778775], [37.1820474, 37.2763237], [37.183646, 37.2757091], [37.1862638, 37.2749151], [37.1895683, 37.2742321], [37.1912312, 37.2741297], [37.1942246, 37.2741467], [37.1975076, 37.2745053], [37.1975076, 37.2747187], [37.1974862, 37.2749749], [37.1973252, 37.2766908], [37.1967888, 37.2798837], [37.1957374, 37.2802934], [37.1953511, 37.2808569], [37.195158, 37.2814971], [37.1960485, 37.2832642], [37.1951258, 37.2849031], [37.1969712, 37.2869689], [37.198323, 37.2876347], [37.200222, 37.2892821], [37.2005546, 37.289871], [37.2018957, 37.2904344], [37.2042346, 37.292133], [37.2051573, 37.2922951], [37.2064233, 37.2937291], [37.2084081, 37.2948472], [37.2089553, 37.2954617], [37.2086012, 37.2997291], [37.2054148, 37.3040986], [37.2053718, 37.3047387], [37.2083786, 37.3112583], [37.2181713, 37.315832], [37.2201884, 37.3162672], [37.2203171, 37.3193048], [37.2233963, 37.3218388], [37.2238469, 37.326719], [37.2242975, 37.3284679], [37.2274518, 37.3309846], [37.2270119, 37.3331088], [37.2275591, 37.3353097], [37.2308206, 37.3375958], [37.2302735, 37.3392421], [37.2296083, 37.3416476], [37.2308421, 37.3456138], [37.2332561, 37.3453409], [37.2334814, 37.3456223], [37.2344363, 37.3455029], [37.2345543, 37.34639], [37.2357559, 37.346262], [37.2369361, 37.3464667], [37.2365498, 37.3437117], [37.2375154, 37.3409225], [37.2383737, 37.3409822], [37.2394037, 37.3413746], [37.2405195, 37.3420655], [37.2407126, 37.3421423], [37.2413134, 37.3428758], [37.242161, 37.3430635], [37.2429442, 37.3433961], [37.2447574, 37.3438226], [37.2456586, 37.3444623], [37.2464204, 37.3448718], [37.2466886, 37.3453067], [37.2471607, 37.3453153], [37.2477829, 37.3451191], [37.2485661, 37.3453665], [37.2492528, 37.3453409], [37.2495961, 37.3453494], [37.251302, 37.3449741], [37.2523856, 37.3444794], [37.252686, 37.3439079], [37.2529113, 37.3431573], [37.2525465, 37.3419888], [37.2523105, 37.3412808], [37.2516882, 37.340914], [37.2510016, 37.3401634], [37.2504437, 37.3392848], [37.2503257, 37.3386365], [37.2508943, 37.3384232], [37.2513235, 37.338628], [37.2519457, 37.3389862], [37.252568, 37.3388668], [37.2542953, 37.3388412], [37.2543812, 37.3385341], [37.2537482, 37.3375958], [37.2548211, 37.3370413], [37.2562694, 37.3368707], [37.2572672, 37.3370755], [37.2574925, 37.3373996], [37.2577071, 37.337374], [37.2578359, 37.3368366], [37.2588444, 37.3367343], [37.2591984, 37.3389692], [37.259649, 37.3392933], [37.261076, 37.3392933], [37.2618914, 37.3389095], [37.2621703, 37.3387986], [37.2632432, 37.3391568], [37.2638547, 37.3391483], [37.264123, 37.3394554], [37.2647989, 37.3394298], [37.2651636, 37.3393189], [37.265625, 37.3394895], [37.2658503, 37.3398136], [37.2664082, 37.3398904], [37.2674274, 37.3399757], [37.2686398, 37.3404193], [37.2698736, 37.3407434], [37.2718155, 37.3410675], [37.2717512, 37.3417499], [37.2719228, 37.3427223], [37.2741866, 37.3422873], [37.2747552, 37.3419035], [37.2751629, 37.3413576], [37.2756779, 37.3412467], [37.2764611, 37.3415026], [37.277416, 37.3408884], [37.2861171, 37.3339533], [37.286396, 37.3346528], [37.2891211, 37.3342945], [37.2894323, 37.3342519], [37.2897112, 37.3340642], [37.2898507, 37.3347978], [37.2906554, 37.3344737], [37.2911918, 37.3343031], [37.291578, 37.3341154], [37.2913313, 37.3330832], [37.2918463, 37.332904], [37.2915888, 37.3321448], [37.2919536, 37.3318291], [37.2917604, 37.3311296], [37.291224, 37.3311637], [37.2909021, 37.3303533], [37.2905481, 37.3305836], [37.2896576, 37.3296026], [37.2895074, 37.3291248], [37.2895288, 37.3288347], [37.2897005, 37.3284167], [37.2899902, 37.3283485], [37.2901189, 37.3270261], [37.2894108, 37.3256269], [37.2888529, 37.324825], [37.28778, 37.3242277], [37.2872651, 37.3227347], [37.2865462, 37.3222995], [37.2862887, 37.3200215], [37.2879517, 37.319885], [37.2879839, 37.3204566], [37.290988, 37.3201409], [37.2923612, 37.3195863], [37.2924042, 37.3192536], [37.2940564, 37.3193901], [37.2944534, 37.3193815], [37.2947001, 37.3190403], [37.2946572, 37.3188525], [37.2962558, 37.3185966], [37.298423, 37.3176068], [37.2986162, 37.3172143], [37.2987664, 37.3169242], [37.2993672, 37.3167194], [37.3005903, 37.3169413], [37.3010409, 37.3165658], [37.3005044, 37.3158747], [37.3005795, 37.3153371], [37.3012447, 37.3152603], [37.3013091, 37.3150555], [37.3001075, 37.3143729], [37.3009765, 37.3144412], [37.3013306, 37.3146545], [37.301985, 37.3146033], [37.3022962, 37.3142705], [37.3026395, 37.3138695], [37.3029077, 37.314262], [37.3031974, 37.3142791], [37.3034441, 37.3150214], [37.3039806, 37.3148849], [37.3040557, 37.3143644], [37.3037231, 37.3137415], [37.3039162, 37.3130332], [37.3037767, 37.3117618], [37.304678, 37.3113181], [37.3049998, 37.3104733], [37.3047101, 37.3089543], [37.3054075, 37.3075804], [37.3059761, 37.3064967], [37.3065662, 37.3060444], [37.3075318, 37.30607], [37.3078, 37.3059249], [37.3081434, 37.3057798], [37.3088086, 37.3057116], [37.309581, 37.3057884], [37.3105681, 37.3062321], [37.3112976, 37.30607], [37.3123813, 37.3057713], [37.31251, 37.3062577], [37.3128533, 37.3066588], [37.3136473, 37.3071111], [37.3139799, 37.307717], [37.3140335, 37.3083826], [37.3138296, 37.3086301], [37.3133576, 37.308741], [37.3127353, 37.3090055], [37.3126709, 37.3091677], [37.3128533, 37.3094408], [37.3140335, 37.3099528], [37.3142481, 37.3100296], [37.3144197, 37.3103965], [37.3141944, 37.3110536], [37.3140013, 37.3115741], [37.3137653, 37.3118301], [37.3133147, 37.3124189], [37.3131001, 37.3129906], [37.3125851, 37.3136988], [37.3123062, 37.3143132], [37.3126173, 37.3151921], [37.3131966, 37.3152945], [37.3139906, 37.3153969], [37.3143017, 37.3157638], [37.3142588, 37.3163611], [37.3145592, 37.3176921], [37.3169303, 37.3189293], [37.3187864, 37.3193474], [37.3190009, 37.3198167], [37.3190224, 37.3210112], [37.3195052, 37.3224019], [37.3211896, 37.3235708], [37.3219836, 37.3236902], [37.3225522, 37.3242704], [37.3223054, 37.3243728], [37.3226273, 37.3246117], [37.3230994, 37.3247311], [37.3243761, 37.3247226], [37.3253846, 37.3245434], [37.3269296, 37.3239035], [37.3292148, 37.3230845], [37.3304272, 37.322564], [37.3315322, 37.3220009], [37.3323905, 37.3220436], [37.3339784, 37.3223081], [37.3350513, 37.322291], [37.3352444, 37.3223507], [37.3357701, 37.3225726], [37.3365962, 37.3233063], [37.3374545, 37.3237329], [37.3382056, 37.3241083], [37.3387205, 37.3246458], [37.3392141, 37.3252686], [37.3397612, 37.325115], [37.3399436, 37.3249529], [37.3398042, 37.3247994], [37.3397183, 37.3245264], [37.3398042, 37.3243642], [37.3401582, 37.3246031], [37.3403942, 37.3242789], [37.3401475, 37.3241766], [37.3401475, 37.3239633], [37.3403406, 37.3239035], [37.3407161, 37.3242789], [37.34092, 37.3243045], [37.3411131, 37.3242149], [37.3412365, 37.3240187], [37.3408449, 37.3238011], [37.3411077, 37.3236604], [37.3413974, 37.3239718], [37.3415583, 37.3240059], [37.3419017, 37.3240656], [37.3423952, 37.3245178], [37.34254, 37.3245349], [37.3427921, 37.3243898], [37.3428243, 37.3242917], [37.3432159, 37.3243386], [37.3433125, 37.3243728], [37.3435163, 37.3245434], [37.3435914, 37.3245519], [37.3439562, 37.3245221], [37.3455977, 37.3237457], [37.3459947, 37.3236604], [37.3464936, 37.3237926], [37.3468101, 37.3237713], [37.3470247, 37.3238779], [37.3472393, 37.3238481], [37.3478615, 37.3237244], [37.3480815, 37.3237286], [37.3482799, 37.3237628], [37.3485804, 37.3240016], [37.3489559, 37.3241083], [37.3491865, 37.324296], [37.3493314, 37.3244538], [37.350018, 37.3244624], [37.3507959, 37.3243941], [37.3510319, 37.3243941], [37.3512518, 37.324232], [37.3517615, 37.3241382], [37.3522979, 37.3240827], [37.3526788, 37.324087], [37.3527431, 37.3241979], [37.3528558, 37.3243472], [37.3529684, 37.3243472], [37.3534995, 37.3242533], [37.3539609, 37.3242149], [37.3543471, 37.324023], [37.3550928, 37.3237073], [37.3554629, 37.3233447], [37.3559886, 37.323238], [37.3563319, 37.3232679], [37.3565143, 37.323349], [37.3570508, 37.3238865], [37.3582041, 37.3244922], [37.3592395, 37.3248719], [37.3598885, 37.3249615], [37.3602855, 37.3249572], [37.3607361, 37.3249956], [37.3610151, 37.3249273], [37.3615998, 37.3245605], [37.3618412, 37.3244581], [37.3627102, 37.3243386], [37.3631555, 37.3241723], [37.3636758, 37.3238353], [37.3642766, 37.32375], [37.3649096, 37.323703], [37.3654193, 37.3237756], [37.3658913, 37.3238609], [37.3664117, 37.3238865], [37.3668408, 37.3237542], [37.36727, 37.3235239], [37.3676616, 37.3234897], [37.3679674, 37.323302], [37.368257, 37.3231741], [37.3688149, 37.3231229], [37.3693031, 37.3231442], [37.3694587, 37.3231826], [37.3698288, 37.3233447], [37.3702365, 37.3236007], [37.3706067, 37.3237969], [37.3709071, 37.3237073], [37.3713845, 37.3235708], [37.3717868, 37.3234684], [37.3723394, 37.323558], [37.3726612, 37.3237798], [37.3728704, 37.3239078], [37.3730367, 37.3238907], [37.3734766, 37.323703], [37.3737824, 37.323686], [37.3743939, 37.3235836], [37.3746568, 37.323703], [37.3749572, 37.3236732], [37.3754507, 37.3234812], [37.3758477, 37.3233831], [37.3759496, 37.3232679], [37.3762822, 37.3231186], [37.3764431, 37.3231186], [37.3766148, 37.3231911], [37.3771673, 37.3231613], [37.3773712, 37.3231015], [37.3775375, 37.3229266], [37.3778272, 37.3228541], [37.3779774, 37.3229224], [37.3781651, 37.3232423], [37.3783958, 37.323238], [37.3786372, 37.3232423], [37.3789376, 37.3231698], [37.3792809, 37.3230162], [37.3795974, 37.3229565], [37.3797315, 37.3230077], [37.3797905, 37.3230887], [37.3798013, 37.3231527], [37.379753, 37.3232722], [37.3796993, 37.323366], [37.3797262, 37.3234599], [37.3798227, 37.3235281], [37.3798978, 37.3235537], [37.3801821, 37.3235708], [37.3804825, 37.3237201], [37.3808742, 37.3237585], [37.3812282, 37.3237073], [37.3814589, 37.323558], [37.3817432, 37.3234897], [37.3821241, 37.3234855], [37.3824191, 37.3234513], [37.3831272, 37.3236092], [37.3838568, 37.3233746], [37.3846614, 37.3228413], [37.3862225, 37.3226408], [37.3881108, 37.3222654], [37.3887169, 37.3229821], [37.3892534, 37.3239462], [37.3893177, 37.3245008], [37.3897898, 37.3253113], [37.3910451, 37.3260365], [37.3919463, 37.3264374], [37.3950362, 37.3267275], [37.3952722, 37.3268213], [37.3959589, 37.3273674], [37.3969781, 37.3279219], [37.3977506, 37.3277854], [37.3986947, 37.3275892], [37.3989522, 37.3277683], [37.3990273, 37.3278451], [37.3993814, 37.3295258], [37.4006367, 37.3305068], [37.4009156, 37.3313514], [37.4009049, 37.3328273], [37.4018061, 37.3335012], [37.4032545, 37.3342519], [37.4067306, 37.3354718], [37.4091339, 37.3368707], [37.4102068, 37.3381503], [37.4104321, 37.3391995], [37.4103141, 37.3403254], [37.4097025, 37.3413576], [37.4099707, 37.3418437], [37.4132323, 37.3414343], [37.4153352, 37.3407349], [37.4186611, 37.3404449], [37.4201631, 37.3403851], [37.4211073, 37.3399501], [37.4212253, 37.3400695], [37.4221694, 37.3396174], [37.4277162, 37.3388242], [37.4275553, 37.339916], [37.4280381, 37.3419973], [37.4313426, 37.3442491], [37.4334133, 37.3451447], [37.4358594, 37.3450509], [37.4389601, 37.3448462], [37.43999, 37.3447097], [37.4406552, 37.3445562], [37.443552, 37.342782], [37.446481, 37.3409993], [37.4479616, 37.340189], [37.4489057, 37.3399075], [37.4499571, 37.3395492], [37.4503326, 37.3394213], [37.4506009, 37.3393104], [37.4511373, 37.3380564], [37.4515235, 37.3374167], [37.4518454, 37.3371437], [37.4518669, 37.3366916], [37.4520922, 37.3364101], [37.4533045, 37.3361201], [37.4544954, 37.3358812], [37.4558365, 37.3356338], [37.4566841, 37.3353609], [37.4584436, 37.333177], [37.4594951, 37.3317012], [37.460289, 37.3312235], [37.4618232, 37.3307542], [37.463336, 37.3301827], [37.464087, 37.329722], [37.4647093, 37.329031], [37.4649668, 37.3278963], [37.4653959, 37.3266763], [37.4659431, 37.3263095], [37.46737, 37.326173], [37.4696445, 37.3268469], [37.4704277, 37.3271967], [37.4715435, 37.3273418], [37.4727773, 37.3274953], [37.4732332, 37.3270689], [37.4730241, 37.3260706], [37.4733782, 37.3255757], [37.4742365, 37.3250553], [37.4745047, 37.3243898], [37.4741185, 37.3232551], [37.473582, 37.3230333], [37.4706423, 37.3229906], [37.4697196, 37.3229736], [37.4691296, 37.322965], [37.4680889, 37.322948], [37.4682712, 37.3220777], [37.4684751, 37.321088], [37.4684, 37.3196802], [37.4683571, 37.3181529], [37.4682927, 37.3171461], [37.4677777, 37.3166682], [37.467649, 37.3161221], [37.467885, 37.3156784], [37.4680138, 37.3148764], [37.4680674, 37.3139463], [37.4680459, 37.3129394], [37.4679065, 37.312453], [37.4682391, 37.3117789], [37.4686253, 37.311028], [37.4688721, 37.3105245], [37.4690866, 37.3097224], [37.4685717, 37.3092701], [37.4680459, 37.3085703], [37.4669194, 37.3083314], [37.466737, 37.3074354], [37.4649989, 37.3071282], [37.462939, 37.3063772], [37.4621987, 37.3057286], [37.4605679, 37.3049435], [37.459656, 37.304184], [37.4590015, 37.3035866], [37.4569416, 37.3032282], [37.4563515, 37.3029807], [37.4555576, 37.3017859], [37.4553859, 37.3006167], [37.4555147, 37.2997462], [37.4552035, 37.2983038], [37.4578535, 37.2996949], [37.4584544, 37.2990378], [37.4592054, 37.2983123], [37.4610186, 37.297365], [37.4638295, 37.2960165], [37.4663186, 37.2947362], [37.4681961, 37.2935669], [37.4725735, 37.2916891], [37.4767792, 37.2899223], [37.4778092, 37.2898198], [37.480073, 37.2898369], [37.4827874, 37.2899223], [37.4833345, 37.2894869], [37.4833023, 37.2884456], [37.4827659, 37.2872506], [37.4830341, 37.2861409], [37.4836779, 37.2851763], [37.4846434, 37.284408], [37.4861884, 37.2823764], [37.4872935, 37.2820349], [37.4885702, 37.2823422], [37.4897933, 37.2827178], [37.4909949, 37.2826495], [37.4925828, 37.2824105], [37.4949002, 37.2822398], [37.496531, 37.2819325], [37.4982905, 37.2819922], [37.4993098, 37.2825044], [37.5006187, 37.2827178], [37.501992, 37.2823849], [37.5055969, 37.2809849], [37.5076461, 37.2803788], [37.5090301, 37.28008], [37.5101995, 37.2795593], [37.5108004, 37.2792007], [37.5111437, 37.2783812], [37.5111759, 37.2779031], [37.5113797, 37.2764091], [37.5116694, 37.2763237], [37.5127637, 37.2761445], [37.5135147, 37.2757518], [37.5144267, 37.2755895], [37.5143623, 37.2753676], [37.5144696, 37.27477], [37.5146842, 37.2743175], [37.5152099, 37.2736857], [37.5159824, 37.2734125], [37.5186968, 37.2730795], [37.5202095, 37.2730283], [37.5208425, 37.2730625], [37.5213253, 37.273182], [37.5223338, 37.2734381], [37.5229561, 37.2732503], [37.5237715, 37.2729344], [37.524308, 37.2727978], [37.5245762, 37.2725331], [37.5242329, 37.2722941], [37.5243401, 37.271944], [37.5246405, 37.2715598], [37.5254023, 37.2715855], [37.5261426, 37.2716111], [37.5270653, 37.2713891], [37.5285995, 37.2712013], [37.5288999, 37.2712098], [37.5290501, 37.2711586], [37.5291359, 37.2705332], [37.529262, 37.2701596], [37.5293907, 37.269895], [37.5288677, 37.2698267], [37.5285459, 37.2696772], [37.5285995, 37.2692119], [37.5283742, 37.268785], [37.5283205, 37.2674872], [37.52846, 37.2665651], [37.5282776, 37.2657198], [37.5276017, 37.265216], [37.5262821, 37.2650026], [37.5245976, 37.2649087], [37.5232029, 37.264644], [37.5216472, 37.2638157], [37.5206494, 37.2635425], [37.5203383, 37.2634571], [37.5202095, 37.2631839], [37.5190937, 37.2627313], [37.5179887, 37.2616896], [37.5167012, 37.2612541], [37.515403, 37.2608784], [37.5142443, 37.2611346], [37.5130319, 37.2615444], [37.5119913, 37.2625435], [37.5105429, 37.2635681], [37.5090408, 37.2645927], [37.5081181, 37.264772], [37.5069809, 37.2645757], [37.5065517, 37.2646098], [37.5057042, 37.264883], [37.5045669, 37.2650453], [37.5036764, 37.2649855], [37.502464, 37.2645757], [37.5014877, 37.264106], [37.5009191, 37.2636364], [37.5007796, 37.2632095], [37.5007045, 37.2625178], [37.5007474, 37.2618945], [37.5006187, 37.2612029], [37.5005007, 37.2606991], [37.5001037, 37.260144], [37.4996531, 37.2598366], [37.4986982, 37.2593072], [37.498076, 37.2593243], [37.4968421, 37.2596829], [37.4959516, 37.2597342], [37.4956298, 37.2595207], [37.4952757, 37.2588973], [37.4952972, 37.2583252], [37.495619, 37.257625], [37.4955547, 37.2570614], [37.4951684, 37.2565405], [37.4940956, 37.2560196], [37.4934518, 37.2559], [37.4924111, 37.2563953], [37.4915957, 37.2566088], [37.4906623, 37.256549], [37.4903512, 37.2561733], [37.4907696, 37.2553962], [37.4910056, 37.2549436], [37.491585, 37.2540298], [37.491982, 37.2537907], [37.4924862, 37.2536712], [37.4930012, 37.2530819], [37.4933874, 37.252245], [37.4937415, 37.2515191], [37.4935698, 37.2510153], [37.4929583, 37.2504516], [37.4916708, 37.2499307], [37.4912739, 37.2494183], [37.4909305, 37.2487265], [37.4900508, 37.2481714], [37.4889135, 37.2478383], [37.4871647, 37.2474027], [37.4859309, 37.2470355], [37.4853945, 37.2463864], [37.4851799, 37.2454811], [37.4861026, 37.2448576], [37.4869394, 37.2447808], [37.4878836, 37.2448235], [37.4887204, 37.2450199], [37.4893212, 37.2449687], [37.4902546, 37.2446868], [37.4908769, 37.2439608], [37.4911666, 37.242953], [37.4910915, 37.2427822], [37.4909627, 37.2424491], [37.491188, 37.2418598], [37.4916172, 37.2411679], [37.4919283, 37.2407067], [37.491982, 37.2401259], [37.4916494, 37.2392461], [37.4913919, 37.2389728], [37.4910271, 37.2384603], [37.4910164, 37.2378197], [37.4917567, 37.2367178], [37.4928081, 37.2354195], [37.4934411, 37.2345311], [37.493999, 37.233378], [37.495147, 37.2322077], [37.4952328, 37.2320967], [37.4972176, 37.2309349], [37.4981081, 37.2308409], [37.499299, 37.2308409], [37.5004578, 37.2309691], [37.5013482, 37.2312595], [37.5023782, 37.2313876], [37.50314, 37.2316354], [37.5042879, 37.2318233], [37.5054145, 37.231755], [37.506305, 37.2318831], [37.5069165, 37.2319514], [37.5070989, 37.2318746], [37.5074315, 37.2314645], [37.5078928, 37.2310203], [37.5082362, 37.2306872], [37.5085795, 37.2302942], [37.5090301, 37.2301234], [37.5092769, 37.2301234], [37.5094056, 37.2300978], [37.5097382, 37.2297304], [37.5100922, 37.2293033], [37.5107574, 37.2286968], [37.5114763, 37.22774], [37.5115192, 37.2264073], [37.511487, 37.2261852], [37.5113368, 37.2253651], [37.5108218, 37.2251772], [37.5098455, 37.2247756], [37.5090086, 37.2243912], [37.5077212, 37.2238701], [37.5073349, 37.223665], [37.5072384, 37.2234002], [37.5068092, 37.2227936], [37.5062191, 37.2221102], [37.5057363, 37.2217257], [37.5051892, 37.2213071], [37.5046313, 37.2211191], [37.5038588, 37.221384], [37.5033009, 37.2212387], [37.5029683, 37.2209141], [37.5030005, 37.2205296], [37.5030756, 37.2200426], [37.5036979, 37.2193933], [37.5040841, 37.2190259], [37.5047278, 37.2183083], [37.5049209, 37.2182656], [37.5053394, 37.21821], [37.5054574, 37.2183339], [37.5058436, 37.2185945], [37.5062513, 37.218539], [37.5069165, 37.2183937], [37.5074959, 37.2181801], [37.5080109, 37.2178811], [37.5086868, 37.2171634], [37.5085902, 37.2167789], [37.5082254, 37.216591], [37.5082791, 37.2163261], [37.5086009, 37.2157964], [37.5089228, 37.2151812], [37.5092876, 37.2149078], [37.5101137, 37.2139081], [37.5106072, 37.2136774], [37.5118518, 37.2129255], [37.511841, 37.212447], [37.5119805, 37.2122932], [37.5126028, 37.2119087], [37.5127637, 37.2115755], [37.5129998, 37.2112422], [37.5128925, 37.2110628], [37.5128496, 37.2109389], [37.5127637, 37.2108577], [37.5121951, 37.210328], [37.5122166, 37.2101272], [37.5138366, 37.2097042], [37.5142711, 37.2104775], [37.5161862, 37.2089779], [37.5157571, 37.2081234], [37.516551, 37.2078842], [37.5173664, 37.2077304], [37.5182032, 37.2076364], [37.5191688, 37.2072946], [37.5234282, 37.2059957], [37.5239432, 37.206611], [37.5248766, 37.2073202], [37.5257885, 37.207944], [37.5265932, 37.2084481], [37.5271189, 37.2088241], [37.5278377, 37.2098153], [37.528696, 37.2106185], [37.5291681, 37.2113619], [37.5296402, 37.2111312], [37.5301337, 37.2104989], [37.5303697, 37.2104989], [37.5307345, 37.2109688], [37.5313568, 37.2109432], [37.5326121, 37.2107381], [37.5338781, 37.2107894], [37.5349402, 37.2109261], [37.5361204, 37.2107894], [37.5367212, 37.2108407], [37.5371718, 37.2108834], [37.5370538, 37.2111397], [37.5365281, 37.2120283], [37.5360882, 37.2123701], [37.5357127, 37.2125068], [37.5356591, 37.2136689], [37.5359487, 37.2143524], [37.5359702, 37.215053], [37.5359166, 37.2161808], [37.5362599, 37.2165397], [37.5367749, 37.2169413], [37.5371396, 37.2173855], [37.5376439, 37.2177871], [37.5387168, 37.2184364], [37.539103, 37.2189832], [37.5399721, 37.2199743], [37.5412488, 37.2202135], [37.5419247, 37.2206236], [37.5421178, 37.2209995], [37.5421607, 37.2217172], [37.5419676, 37.2223323], [37.5419032, 37.2236992], [37.541635, 37.2262621], [37.5416994, 37.2274666], [37.5419354, 37.2280817], [37.5420749, 37.2287053], [37.5422466, 37.2289787], [37.5426757, 37.229235], [37.5434053, 37.2293631], [37.5439417, 37.229551], [37.5441027, 37.2295339], [37.5443172, 37.2294314], [37.5447464, 37.229252], [37.5450146, 37.2288249], [37.5452185, 37.2283209], [37.5462484, 37.2272189], [37.5475895, 37.2258093], [37.5476968, 37.2255573], [37.5478148, 37.2255445], [37.5482547, 37.2258691], [37.5484908, 37.2257922], [37.5486839, 37.2255958], [37.5488126, 37.2253309], [37.5492632, 37.2253395], [37.5496924, 37.2255274], [37.5499284, 37.2258008], [37.5502288, 37.2262108], [37.5506151, 37.2264244], [37.550894, 37.2267661], [37.5509691, 37.2271506], [37.551173, 37.2274666], [37.5515592, 37.2278169], [37.5520956, 37.2278254], [37.5529325, 37.2274154], [37.5534582, 37.2271847], [37.5536942, 37.2273043], [37.5538552, 37.227535], [37.5541556, 37.2279536], [37.5550246, 37.2281757], [37.555325, 37.2282953], [37.555486, 37.2286455], [37.55584, 37.2288676], [37.556355, 37.2289787], [37.5570845, 37.2293887], [37.5587582, 37.2297219], [37.5594878, 37.229739], [37.5606143, 37.2295254], [37.5616336, 37.2294827], [37.5630927, 37.2294827], [37.5649059, 37.2292862], [37.5653779, 37.2297304], [37.5661075, 37.2297817], [37.5670087, 37.2297988], [37.5675022, 37.230354], [37.5678241, 37.2309776], [37.5689399, 37.2316695], [37.5698089, 37.2321906], [37.5707853, 37.2332071], [37.5717723, 37.2338136], [37.5731134, 37.2343347], [37.573564, 37.2354964], [37.5755274, 37.2355647], [37.5765359, 37.2359491], [37.5773299, 37.2368887], [37.5787032, 37.2381272], [37.5803232, 37.2387251], [37.5812459, 37.2383664], [37.5822115, 37.2383835], [37.5827372, 37.2389472], [37.5846577, 37.2393059], [37.5862133, 37.2390839], [37.5871253, 37.2384347], [37.5883484, 37.2386653], [37.589829, 37.2380674], [37.5914651, 37.2377599], [37.5934875, 37.2370253], [37.59426, 37.2369228], [37.5971782, 37.2366153], [37.5985515, 37.2368887], [37.6002896, 37.2377001], [37.6014805, 37.2392974], [37.6018345, 37.2413473], [37.6021457, 37.2427224], [37.603004, 37.2441744], [37.6045918, 37.2451822], [37.6058686, 37.2456861], [37.607274, 37.2460619], [37.6086795, 37.2462925], [37.6115119, 37.2464718], [37.6136255, 37.2467536], [37.6149452, 37.2473856], [37.6162326, 37.2479066], [37.617166, 37.2482995], [37.6178205, 37.2492218], [37.6190007, 37.2496745], [37.6196015, 37.2498538], [37.621243, 37.2499563], [37.6224768, 37.2501612], [37.6235926, 37.2500075], [37.6259637, 37.2491023], [37.6266932, 37.2485557], [37.6268649, 37.2479835], [37.6266396, 37.246617], [37.6267576, 37.2462583], [37.6271975, 37.2441914], [37.6269507, 37.2426797], [37.6255131, 37.2397757], [37.6252878, 37.2388148], [37.6250249, 37.2383706], [37.6244509, 37.2381357], [37.6239359, 37.2376318], [37.6234531, 37.2368759], [37.623142, 37.2361199], [37.6230347, 37.2343048], [37.6227772, 37.2333993], [37.6223963, 37.2323187], [37.6221818, 37.2316354], [37.6223534, 37.2309349], [37.623142, 37.2303113], [37.623378, 37.2292819], [37.6234907, 37.2283551], [37.6246011, 37.2279109], [37.6258081, 37.2276973], [37.6259583, 37.2279621], [37.6263124, 37.2286882], [37.6268971, 37.2299696], [37.6273584, 37.2308068], [37.627514, 37.2310289], [37.6278573, 37.2314987], [37.6300675, 37.2314859], [37.6311779, 37.231157], [37.6313442, 37.2306957], [37.6310652, 37.230307], [37.631194, 37.2297945], [37.6333451, 37.2291837], [37.6382, 37.2281137], [37.6375079, 37.2275862], [37.6358664, 37.2271249], [37.6351368, 37.2266038], [37.6339781, 37.2252968], [37.6339996, 37.2247073], [37.6343322, 37.2239042], [37.6343751, 37.2230841], [37.6336455, 37.2218966], [37.6339567, 37.2215292], [37.6344395, 37.2211106], [37.6347935, 37.2204784], [37.6346218, 37.2193335], [37.6359415, 37.2173428], [37.6365638, 37.2165739], [37.6367998, 37.215147], [37.6368213, 37.2147369], [37.6363706, 37.2148394], [37.6356411, 37.2150445], [37.6348579, 37.2152666], [37.6337957, 37.2153863], [37.6328838, 37.2154119], [37.6322937, 37.2153948], [37.6313388, 37.2153435], [37.6304698, 37.213011], [37.6303732, 37.2124897], [37.6299977, 37.2121821], [37.6300728, 37.2115071], [37.6300943, 37.2111483], [37.6292038, 37.2112166], [37.6275194, 37.2109859], [37.6256096, 37.2103109], [37.6241934, 37.2094735], [37.6235175, 37.209465], [37.6230025, 37.2094137], [37.6231956, 37.2085336], [37.6232815, 37.2075338], [37.6229167, 37.2073031], [37.6210391, 37.2083627], [37.6197088, 37.2086703], [37.6187861, 37.2090121], [37.6173699, 37.2098324], [37.6162755, 37.2103622], [37.6152563, 37.2104903], [37.6139903, 37.2105672], [37.6145482, 37.2096359], [37.6151276, 37.2095846], [37.6157284, 37.2094222], [37.6160717, 37.2090463], [37.6162863, 37.2086105], [37.6157927, 37.2080721], [37.6153314, 37.2076791], [37.6147842, 37.2073544], [37.6153421, 37.2064144], [37.6153743, 37.206047], [37.6156855, 37.2057821], [37.6162219, 37.2056539], [37.6171017, 37.2048677], [37.6173699, 37.2043379], [37.6171017, 37.2041072], [37.6162004, 37.2036287], [37.6156962, 37.2031672], [37.615385, 37.2026801], [37.6153636, 37.2023468], [37.6157069, 37.2020136], [37.616179, 37.2016034], [37.6163399, 37.2014239], [37.6167905, 37.2014154], [37.6173699, 37.2013897], [37.6175523, 37.2011077], [37.6178098, 37.2005522], [37.6189577, 37.2000139], [37.6205349, 37.1995267], [37.6209855, 37.1991935], [37.6214039, 37.1991165], [37.6218223, 37.1988174], [37.6223051, 37.1981679], [37.6227879, 37.1974586], [37.6232278, 37.196886], [37.6235711, 37.1962878], [37.6200521, 37.1954673], [37.6198482, 37.195963], [37.619344, 37.1959545], [37.6189041, 37.1961938], [37.6180887, 37.1961169], [37.6180887, 37.1955443], [37.6171338, 37.1954673], [37.6171875, 37.1946982], [37.6184213, 37.1947238], [37.6186037, 37.1947153], [37.6189792, 37.1945529], [37.6194727, 37.1941768], [37.6196551, 37.1938264], [37.6194942, 37.193194], [37.6196229, 37.1928777], [37.6209855, 37.1931769], [37.6213395, 37.1919718], [37.6184642, 37.1913821], [37.6175415, 37.1912539], [37.6162755, 37.1915017], [37.6160288, 37.1920316], [37.615267, 37.1919034], [37.6151061, 37.1919974], [37.6141941, 37.1917838], [37.6139367, 37.1925444], [37.6127994, 37.1923393], [37.6130891, 37.1911769], [37.6135719, 37.1911342], [37.6136792, 37.190459], [37.6135182, 37.1902539], [37.6138294, 37.1894248], [37.6131749, 37.1892111], [37.6126063, 37.1897667], [37.6118123, 37.1893479], [37.6111686, 37.1901342], [37.6098812, 37.1893394], [37.6114905, 37.1879376], [37.610954, 37.1875444], [37.6108682, 37.1872026], [37.6102996, 37.1866555], [37.6098061, 37.1862624], [37.6089692, 37.1848862], [37.608819, 37.1844845], [37.6089048, 37.1841853], [37.6093554, 37.1793857], [37.6093715, 37.1792874], [37.6086634, 37.1792232], [37.608481, 37.1785949], [37.60876, 37.1783727], [37.6090658, 37.1781077], [37.6087278, 37.1764108], [37.6079875, 37.1764365], [37.6078588, 37.1767143], [37.6076817, 37.176881], [37.6066357, 37.1768083], [37.6062226, 37.1777914], [37.6044524, 37.1772272], [37.6048386, 37.1765177], [37.6047152, 37.1761971], [37.6043504, 37.1758167], [37.6034546, 37.1752525], [37.6032025, 37.1748849], [37.6032346, 37.1745643], [37.6033366, 37.1743976], [37.6034868, 37.1740044], [37.6035297, 37.1738548], [37.6037335, 37.1737778], [37.603873, 37.1736111], [37.6038462, 37.1735214], [37.6039052, 37.1734573], [37.6038301, 37.1732564], [37.6041037, 37.1730213], [37.6042217, 37.173111], [37.6043075, 37.1729914], [37.604447, 37.1730298], [37.6047099, 37.1729743], [37.6049781, 37.1727306], [37.6054072, 37.1722604], [37.6055252, 37.1719783], [37.6053321, 37.1714141], [37.6052248, 37.1712602], [37.6049244, 37.1712858], [37.604903, 37.1710379], [37.6052248, 37.1704908], [37.6057184, 37.1700975], [37.6063836, 37.1699094], [37.6068234, 37.1696444], [37.6069629, 37.1686954], [37.6068234, 37.1681568], [37.6064372, 37.1676182], [37.6064265, 37.167319], [37.6062441, 37.1664982], [37.6059651, 37.1661819], [37.6056433, 37.1660793], [37.6053858, 37.1661477], [37.6052248, 37.1664554], [37.6049352, 37.1664298], [37.6045489, 37.1662503], [37.6043773, 37.1660707], [37.6046026, 37.165609], [37.6047313, 37.1651388], [37.604624, 37.1644976], [37.6045918, 37.1643864], [37.6043236, 37.1642667], [37.6028752, 37.1644719], [37.6024246, 37.1645659], [37.6018453, 37.1647797], [37.6012659, 37.1648737], [37.6006007, 37.1649165], [37.5997746, 37.1647369], [37.6001608, 37.1654466], [37.6006973, 37.1654808], [37.6006865, 37.1658997], [37.5992596, 37.165857], [37.5992918, 37.1653867], [37.5982296, 37.1649079], [37.5982296, 37.1644976], [37.5977147, 37.1645488], [37.5973606, 37.1643779], [37.5967705, 37.1643864], [37.5962341, 37.1647711], [37.5949466, 37.1652328], [37.5944853, 37.1653611], [37.5944102, 37.1651644], [37.5948071, 37.1648908], [37.5950861, 37.1646343], [37.5950324, 37.1640872], [37.5946462, 37.1638563], [37.5946247, 37.1635827], [37.5950432, 37.1634887], [37.5952148, 37.1632236], [37.5956225, 37.1630355], [37.5956547, 37.1628816], [37.5954294, 37.1627192], [37.5956762, 37.1626251], [37.5960839, 37.1622318], [37.5959766, 37.1618812], [37.5955152, 37.1618556], [37.5950539, 37.1618214], [37.5947428, 37.1615905], [37.5947213, 37.1612314], [37.5953865, 37.1603251], [37.5967169, 37.1599489], [37.5977576, 37.1598634], [37.5993562, 37.1594017], [37.5999677, 37.1588801], [37.6004398, 37.1584697], [37.6025534, 37.1573324], [37.6040554, 37.157512], [37.6049352, 37.1568792], [37.604785, 37.1564774], [37.6044202, 37.1563491], [37.6060295, 37.15599], [37.6081002, 37.1552717], [37.6098061, 37.1550793], [37.6115173, 37.1544508], [37.6134753, 37.1534674], [37.6149559, 37.1527748], [37.6171124, 37.1522874], [37.6175094, 37.1523472], [37.61796, 37.1522446], [37.6183891, 37.1526978], [37.6187003, 37.152561], [37.6191831, 37.1527748], [37.6197731, 37.152484], [37.6209211, 37.152065], [37.6219726, 37.1511843], [37.6229381, 37.1496364], [37.624011, 37.1490293], [37.6254916, 37.1490207], [37.628957, 37.148157], [37.6298904, 37.1474472], [37.630384, 37.14625], [37.6306844, 37.1447534], [37.6314247, 37.1441034], [37.6319504, 37.1434363], [37.6330125, 37.143308], [37.6342571, 37.1425212], [37.6350939, 37.142316], [37.6364028, 37.1427008], [37.6377976, 37.1425041], [37.6389616, 37.1420679], [37.6389456, 37.1415762], [37.6385325, 37.14111], [37.6383126, 37.1410588], [37.6380765, 37.1406739], [37.6379263, 37.1405114], [37.6371109, 37.1399469], [37.6368534, 37.1397759], [37.6366067, 37.1395792], [37.6362955, 37.1393311], [37.6359951, 37.1392371], [37.6348793, 37.138989], [37.6344073, 37.1388436], [37.6335275, 37.1385272], [37.6322722, 37.1380653], [37.6316929, 37.1379028], [37.6302016, 37.136962], [37.6284099, 37.1358672], [37.6252341, 37.1356106], [37.6247084, 37.1354224], [37.625277, 37.1344474], [37.6252663, 37.1334039], [37.626071, 37.1318557], [37.6272511, 37.1310773], [37.6289463, 37.1307865], [37.62959, 37.1302562], [37.6302445, 37.1308806], [37.6325405, 37.1314879], [37.6336777, 37.1311286], [37.6343644, 37.1303674], [37.6349866, 37.1304187], [37.6362634, 37.1312142], [37.6381946, 37.1318899], [37.6396644, 37.1320524], [37.6401365, 37.1329078], [37.6407587, 37.1334466], [37.6426148, 37.1335065], [37.6455331, 37.1338144], [37.6461768, 37.1339171], [37.6476037, 37.1325143], [37.6486337, 37.1325485], [37.6499426, 37.1318215], [37.6501036, 37.1312741], [37.6493096, 37.1293238], [37.6497495, 37.1289047], [37.651155, 37.1277413], [37.6527214, 37.1273821], [37.6541912, 37.1273992], [37.6547706, 37.1281348], [37.6556611, 37.1284085], [37.6569807, 37.128169], [37.658751, 37.1294008], [37.6613045, 37.1284], [37.6614761, 37.1274419], [37.6628601, 37.1273992], [37.6638043, 37.1270313], [37.6648557, 37.1270912], [37.6651668, 37.1264668], [37.6660788, 37.1265438], [37.666862, 37.1263128], [37.6671195, 37.125637], [37.6682675, 37.125158], [37.6695442, 37.1245763], [37.6697266, 37.1239689], [37.670939, 37.1233872], [37.6721084, 37.1228055], [37.6727736, 37.1220613], [37.6732564, 37.1211459], [37.6741791, 37.1206754], [37.6757669, 37.1204359], [37.6763141, 37.1199226], [37.6764643, 37.1187505], [37.6768291, 37.118434], [37.6776552, 37.1184083], [37.6785564, 37.1188532], [37.6791143, 37.1189473], [37.6795649, 37.1186393], [37.6795757, 37.1177667], [37.6800156, 37.1172448], [37.6805949, 37.117031], [37.6808309, 37.1164492], [37.6817429, 37.1163808], [37.6822472, 37.1160214], [37.6829445, 37.1159444], [37.6832771, 37.1161583], [37.6844466, 37.1160728], [37.6856375, 37.1155252], [37.6856375, 37.1147723], [37.6850098, 37.1126805], [37.6838833, 37.1128302], [37.683084, 37.113027], [37.6823598, 37.1130655], [37.6813567, 37.1127575], [37.6801228, 37.1127104], [37.67802, 37.1127233], [37.6772368, 37.1115511], [37.6769364, 37.1101779], [37.6764911, 37.108548], [37.6758635, 37.108548], [37.6758528, 37.108056], [37.6763999, 37.1071576], [37.6764589, 37.1063832], [37.6763517, 37.1056944], [37.6762605, 37.1047917], [37.6759118, 37.104796], [37.6757723, 37.1043125], [37.6753056, 37.1043896], [37.6753378, 37.1036109], [37.6754504, 37.1021648], [37.6748228, 37.1023017], [37.6747209, 37.0999271], [37.6745439, 37.0991014], [37.6741147, 37.0981044], [37.6738304, 37.0985708], [37.6735729, 37.0987591], [37.6734549, 37.0987591], [37.6733261, 37.0986179], [37.6731974, 37.0986179], [37.6729399, 37.0986564], [37.6728702, 37.0986264], [37.6728165, 37.0984767], [37.6727736, 37.0983911], [37.6724946, 37.0984211], [37.6723069, 37.0983612], [37.6721996, 37.0982071], [37.6720655, 37.0979376], [37.6719797, 37.0975867], [37.6720387, 37.0973557], [37.6719904, 37.0966497], [37.6719582, 37.0965256], [37.6717865, 37.096363], [37.6716632, 37.096102], [37.6715934, 37.0959651], [37.6716363, 37.0956228], [37.671572, 37.0954516], [37.6716095, 37.0952676], [37.6718348, 37.0950537], [37.6720333, 37.0950793], [37.672323, 37.0949938], [37.6724786, 37.0948098], [37.6726127, 37.0944717], [37.6729238, 37.0942535], [37.6730365, 37.0939754], [37.6732242, 37.0937101], [37.6735246, 37.0934534], [37.6739699, 37.0932137], [37.6739699, 37.0930939], [37.6737767, 37.0929784], [37.6735836, 37.0928971], [37.6733583, 37.0925505], [37.6731974, 37.0924264], [37.6730686, 37.0922339], [37.6729721, 37.0920456], [37.6729453, 37.0918445], [37.6727039, 37.091622], [37.6726717, 37.0913267], [37.6726019, 37.0912625], [37.6724893, 37.0912368], [37.6721138, 37.0912454], [37.6720065, 37.0908175], [37.671867, 37.0907661], [37.6718563, 37.0906249], [37.6718777, 37.0904923], [37.6720118, 37.0903511], [37.671985, 37.0901842], [37.6721674, 37.0899317], [37.6722103, 37.0897691], [37.6721889, 37.089568], [37.6721299, 37.0893925], [37.672264, 37.0891657], [37.672323, 37.0889389], [37.6724732, 37.0886608], [37.6725322, 37.0885025], [37.6725429, 37.0882928], [37.6726878, 37.0881088], [37.6726717, 37.0879504], [37.6726073, 37.0876937], [37.6726609, 37.0874968], [37.6727253, 37.0874241], [37.672736, 37.08727], [37.6726127, 37.0870903], [37.6726609, 37.0865554], [37.6728058, 37.0861232], [37.6730043, 37.085768], [37.6732135, 37.0856268], [37.6731974, 37.0854428], [37.6733422, 37.0852502], [37.6734066, 37.084972], [37.6737499, 37.0844029], [37.6737821, 37.0843472], [37.673884, 37.0842745], [37.6741576, 37.0839193], [37.6741093, 37.0837738], [37.6743776, 37.0834742], [37.674576, 37.0832816], [37.6748925, 37.0825242], [37.6750427, 37.0823786], [37.675091, 37.0821946], [37.6750696, 37.082002], [37.6748711, 37.0818523], [37.674619, 37.0817624], [37.6744312, 37.0817624], [37.6739591, 37.0817025], [37.6736963, 37.0816212], [37.6733851, 37.081604], [37.6728594, 37.0817068], [37.6723123, 37.0816083], [37.6717973, 37.0814971], [37.6715827, 37.0813943], [37.6712769, 37.081313], [37.6711535, 37.0811076], [37.6710141, 37.0809963], [37.6706493, 37.0808423], [37.6705849, 37.0807824], [37.6707995, 37.0804229], [37.6709282, 37.0799179], [37.6709926, 37.079721], [37.6713145, 37.0793786], [37.6719582, 37.0786853], [37.6727843, 37.0779406], [37.6719904, 37.077564], [37.6720226, 37.0773243], [37.6722801, 37.0772986], [37.6723552, 37.0771788], [37.6723552, 37.0769562], [37.672044, 37.0767765], [37.6719153, 37.0765711], [37.6718831, 37.0763057], [37.6719904, 37.0753384], [37.6717436, 37.0734809], [37.6718724, 37.0725307], [37.6714218, 37.0717774], [37.668997, 37.070091], [37.6690185, 37.0694062], [37.6730633, 37.0665298], [37.6743293, 37.0653141], [37.6746726, 37.0643467], [37.6745331, 37.0637902], [37.6730204, 37.0626002], [37.6727521, 37.0618125], [37.6721835, 37.0609821], [37.6706278, 37.0592869], [37.6695549, 37.0585762], [37.6670873, 37.0586619], [37.6664114, 37.0588245], [37.6660252, 37.0586704], [37.6646733, 37.0581481], [37.6643515, 37.0577714], [37.6640296, 37.0574289], [37.6633966, 37.0570265], [37.6629996, 37.0567012], [37.6627743, 37.0562303], [37.6625597, 37.0560333], [37.662195, 37.0557508], [37.6618731, 37.0555795], [37.6615941, 37.0555196], [37.6610041, 37.0548689], [37.6607466, 37.0546634], [37.66065, 37.0542096], [37.6605213, 37.0540298], [37.6602209, 37.0538071], [37.6599634, 37.0537044], [37.6598132, 37.0534561], [37.659663, 37.0532249], [37.6593089, 37.0530365], [37.6590621, 37.0527797], [37.6589656, 37.0525057], [37.6592874, 37.0520861], [37.6594055, 37.0518121], [37.6594376, 37.0513069], [37.6596093, 37.0505534], [37.6598453, 37.0501338], [37.6601565, 37.0495173], [37.6604032, 37.0490806], [37.6605213, 37.0489179], [37.6606715, 37.0488494], [37.6608002, 37.0487809], [37.6608968, 37.0485668], [37.6609933, 37.0482928], [37.6605642, 37.0482671], [37.6601136, 37.0481472], [37.6600063, 37.0480188], [37.6594055, 37.0478818], [37.6588368, 37.0478561], [37.6583969, 37.0478047], [37.658236, 37.0477019], [37.6577103, 37.0476249], [37.657088, 37.0478475], [37.656852, 37.0478389], [37.6563156, 37.0477276], [37.6544809, 37.0472738], [37.6511228, 37.0504164], [37.6505488, 37.0500139], [37.6502967, 37.049924], [37.6501572, 37.0499026], [37.6500177, 37.049894], [37.6500553, 37.04968], [37.6499051, 37.0494317], [37.6498085, 37.0492904], [37.6498622, 37.0492476], [37.6501518, 37.0491962], [37.6502377, 37.0490634], [37.6503181, 37.0486524], [37.6503074, 37.0485582], [37.6499963, 37.0484341], [37.6497871, 37.0483399], [37.6496154, 37.0481986], [37.6492077, 37.0476891], [37.6490629, 37.0475564], [37.6488805, 37.0473851], [37.6487249, 37.0472952], [37.6484352, 37.0473123], [37.6476788, 37.0470511], [37.6474857, 37.0469655], [37.6472282, 37.0469227], [37.6469439, 37.0468842], [37.6464665, 37.0467001], [37.6463431, 37.0465502], [37.6461661, 37.0464003], [37.6458496, 37.0460963], [37.6453721, 37.0459294], [37.6450449, 37.0459765], [37.6449376, 37.0460278], [37.6449698, 37.0463447], [37.6449376, 37.046486], [37.644648, 37.0466358], [37.6443422, 37.0469655], [37.6442939, 37.0472267], [37.6440096, 37.0474408], [37.6437467, 37.0475521], [37.6435, 37.0475521], [37.6430279, 37.047535], [37.6424646, 37.0473937], [37.6420355, 37.0474194], [37.6414132, 37.047505], [37.6412201, 37.0476463], [37.6407051, 37.0475264], [37.6403457, 37.0461905], [37.640056, 37.0463147], [37.6393425, 37.0464646], [37.6389885, 37.0464646], [37.6388007, 37.0463918], [37.6384628, 37.0458737], [37.638216, 37.0454884], [37.6377976, 37.0450131], [37.6375401, 37.0447391], [37.6374865, 37.0444436], [37.6373577, 37.0443323], [37.6370412, 37.0442038], [37.6364136, 37.0441311], [37.6361239, 37.0440369], [37.6353514, 37.0437757], [37.6348954, 37.0435659], [37.6337635, 37.0431206], [37.6334417, 37.0429407], [37.6330125, 37.0425896], [37.6328945, 37.042307], [37.6330179, 37.0415663], [37.6333612, 37.041228], [37.6337582, 37.0411038], [37.6347613, 37.0411167], [37.6352709, 37.0410225], [37.635346, 37.0408726], [37.6346916, 37.0399734], [37.6347667, 37.0395195], [37.6352173, 37.0390399], [37.6352388, 37.0383377], [37.634992, 37.0380037], [37.6346809, 37.0378409], [37.6345843, 37.0376954], [37.6346004, 37.0374598], [37.6349705, 37.037083], [37.6353353, 37.0368903], [37.6359951, 37.0367747], [37.6364779, 37.0361238], [37.6372933, 37.0355928], [37.6378083, 37.0351989], [37.6380551, 37.0347107], [37.6380873, 37.0341968], [37.6378941, 37.0333318], [37.6394498, 37.0339313], [37.639879, 37.0339827], [37.6402652, 37.0338714], [37.6413703, 37.0334089], [37.6419711, 37.0329121], [37.6425075, 37.0318586], [37.6426148, 37.030985], [37.6424324, 37.0306853], [37.6417029, 37.0308309], [37.6414239, 37.0308737], [37.6413381, 37.0307452], [37.641263, 37.0301799], [37.6414454, 37.0299829], [37.6418209, 37.0299144], [37.6428831, 37.0300001], [37.6431727, 37.0293748], [37.6431513, 37.0291178], [37.6430762, 37.0281414], [37.6431942, 37.0279016], [37.644031, 37.0267881], [37.644546, 37.0264026], [37.6463377, 37.0253491], [37.6471639, 37.0250407], [37.6471639, 37.0248009], [37.6470566, 37.0245354], [37.6462197, 37.0241156], [37.6457369, 37.0237559], [37.6453936, 37.023182], [37.6443207, 37.0228907], [37.6444709, 37.0223682], [37.6449323, 37.0218885], [37.6455223, 37.0215459], [37.6459622, 37.0208349], [37.646091, 37.0205265], [37.6460373, 37.0201068], [37.6462841, 37.0198926], [37.6465094, 37.0197042], [37.6469922, 37.0193615], [37.6472068, 37.0190874], [37.6475716, 37.0188218], [37.6499212, 37.0172799], [37.6503181, 37.0168601], [37.650522, 37.016526], [37.6509404, 37.0153952], [37.6516056, 37.0145985], [37.6518524, 37.0143158], [37.6524103, 37.0138618], [37.6526678, 37.0137076], [37.6528609, 37.0136733], [37.6539016, 37.0128852], [37.6546204, 37.0120884], [37.6547706, 37.0116429], [37.6539552, 37.0114031], [37.6540625, 37.0104435], [37.6540625, 37.009364], [37.6542449, 37.0082074], [37.6554465, 37.0076334], [37.6531935, 37.0057999], [37.6536763, 37.0052602], [37.6543736, 37.0044891], [37.6546097, 37.0027926], [37.6549208, 37.0017987], [37.6546204, 37.0014474], [37.6544487, 37.0009504], [37.6536441, 37.0006677], [37.6534402, 37.0004106], [37.6533115, 36.9998794], [37.6531613, 36.9996395], [37.6525175, 36.9995795], [37.652142, 36.9991511], [37.6518094, 36.9985084], [37.6508653, 36.9985598], [37.6477647, 36.9976944], [37.6477647, 36.9969918], [37.6464772, 36.9958864], [37.646842, 36.995535], [37.6471639, 36.9949009], [37.6441812, 36.9936927], [37.6438165, 36.9937784], [37.6435912, 36.9943525], [37.6430118, 36.9943097], [37.6429045, 36.9950895], [37.643162, 36.9954237], [37.6430976, 36.9959806], [37.6422822, 36.9962377], [37.6418531, 36.9965205], [37.6416707, 36.9971546], [37.6410591, 36.99796], [37.6402867, 36.998457], [37.6393318, 36.9986027], [37.6389563, 36.9984056], [37.637465, 36.9986112], [37.6366174, 36.9986112], [37.6360381, 36.9981742], [37.6351368, 36.9988512], [37.6344716, 36.9996395], [37.6331413, 37.0004877], [37.632004, 37.0008219], [37.6312745, 37.000522], [37.6305771, 36.9998708], [37.6295364, 36.999271], [37.6291609, 36.9987912], [37.6290643, 36.99802], [37.627573, 36.99814], [37.6263285, 36.9989111], [37.6254272, 36.9994938], [37.6241827, 36.9997766], [37.6230025, 36.9995366], [37.6218116, 36.999708], [37.6210391, 37.0002221], [37.6201057, 37.0004106], [37.6188183, 37.000899], [37.6181316, 37.0022271], [37.6174021, 37.0027669], [37.6163292, 37.003658], [37.6149559, 37.0040778], [37.6141298, 37.0043691], [37.6134968, 37.0044891], [37.6123381, 37.0045919], [37.6111901, 37.004986], [37.6101816, 37.0055943], [37.6081324, 37.0060313], [37.6064372, 37.0056629], [37.6060188, 37.0054744], [37.604785, 37.0052602], [37.6038086, 37.0048746], [37.6038086, 37.0042834], [37.6043129, 37.0034181], [37.6043773, 37.0027755], [37.6037228, 37.0023727], [37.6025319, 37.0019872], [37.6014376, 37.0015416], [37.6001179, 37.0002307], [37.5986802, 37.0001878], [37.5974786, 36.9997423], [37.5957942, 36.999708], [37.5945818, 36.9995281], [37.593584, 36.9996138], [37.5925112, 37.000025], [37.5918352, 36.9990739], [37.5915992, 36.9955522], [37.5907624, 36.9954751], [37.5899255, 36.9954836], [37.5883806, 36.9953123], [37.5872862, 36.9951837], [37.5861919, 36.9949267], [37.5854516, 36.9949267], [37.5842714, 36.9948752], [37.5834775, 36.9946782], [37.5829625, 36.994721], [37.5825763, 36.9947638], [37.5822329, 36.9947724], [37.5807309, 36.994661], [37.5801956, 36.9946971], [37.5798404, 36.9947895], [37.5788212, 36.9950809], [37.5779199, 36.9955522], [37.5770187, 36.9958692], [37.576772, 36.9959292], [37.5764716, 36.9960063], [37.5759137, 36.9958778], [37.5754175, 36.9956464], [37.574991, 36.9959356], [37.5748542, 36.9960385], [37.5747603, 36.9959956], [37.5732207, 36.9970774], [37.5719976, 36.996769], [37.5715148, 36.996212], [37.569294, 36.9958692], [37.5691652, 36.9965119], [37.5681567, 36.9961777], [37.5668692, 36.9985084], [37.5675237, 36.9990568], [37.5682318, 36.9997423], [37.5672126, 37.0003935], [37.5665581, 37.0005306], [37.5644982, 37.000205], [37.5642943, 37.0013617], [37.5636077, 37.0013531], [37.5629103, 37.0016873], [37.5625133, 37.0021671], [37.5623524, 37.002724], [37.5618589, 37.0031867], [37.5603139, 37.0032467], [37.5598633, 37.0030496], [37.5590908, 37.0028697], [37.5584364, 37.003101], [37.5580394, 37.0034866], [37.5563657, 37.0036494], [37.5558293, 37.0060141], [37.5544238, 37.0064939], [37.5540697, 37.006631], [37.5535467, 37.0066696], [37.5522673, 37.0081389], [37.550894, 37.0094069], [37.550776, 37.0100409], [37.5505078, 37.0108205], [37.5499606, 37.0123454], [37.5492096, 37.0144186], [37.5512266, 37.0157465], [37.5506151, 37.0164575], [37.5491667, 37.0172456], [37.5489199, 37.0176311], [37.5491667, 37.0179224], [37.5502932, 37.0180594], [37.5508296, 37.0182993], [37.5516343, 37.0195671], [37.5504005, 37.0201153], [37.5508296, 37.0207492], [37.5506151, 37.0214174], [37.5494349, 37.022925], [37.5494027, 37.0245182], [37.5496387, 37.0256831], [37.549907, 37.0261371], [37.5507653, 37.0269851], [37.5516236, 37.0276275], [37.5492847, 37.0280129], [37.549392, 37.0294519], [37.5483298, 37.0293662], [37.5473106, 37.0297345], [37.5461733, 37.0303341], [37.5459587, 37.0316274], [37.5453472, 37.0316531], [37.5441563, 37.0312077], [37.5433838, 37.0318244], [37.5432551, 37.0325096], [37.5415707, 37.0340084], [37.5415063, 37.0341197], [37.5418389, 37.0346336], [37.5417209, 37.0357898], [37.5414312, 37.0364236], [37.538352, 37.0379223], [37.5378692, 37.038282], [37.5375152, 37.0386759], [37.5372791, 37.0389671], [37.5372898, 37.039224], [37.5376868, 37.0394981], [37.5376654, 37.0403117], [37.5362492, 37.0417333], [37.5359917, 37.0424954], [37.5359702, 37.0425982], [37.5367212, 37.0428294], [37.537204, 37.0433518], [37.536968, 37.0454498], [37.5369358, 37.0458009], [37.5343716, 37.0457324], [37.5341892, 37.046563], [37.5320434, 37.04825], [37.5313461, 37.0486267], [37.5296724, 37.0485668], [37.5292003, 37.0481815], [37.5268614, 37.0480787], [37.5260031, 37.0475821], [37.5252843, 37.0473594], [37.5244045, 37.0472909], [37.523514, 37.0474194], [37.523632, 37.048113], [37.521733, 37.0492947], [37.5211858, 37.0493289], [37.5215125, 37.0535813], [37.5214755, 37.0539698], [37.521261, 37.0543295], [37.5208104, 37.055785], [37.5204992, 37.0558107], [37.5198086, 37.0569334], [37.5193478, 37.0598657], [37.5196087, 37.0599889], [37.5202954, 37.0606396], [37.5221534, 37.0615182], [37.5200218, 37.0630406], [37.5179994, 37.0621036], [37.5166368, 37.0621122], [37.5160682, 37.0624718], [37.5148988, 37.0625317], [37.5145554, 37.0623605], [37.5137186, 37.062643], [37.5111329, 37.0611533], [37.5082683, 37.0630796], [37.5070023, 37.0631053], [37.5063031, 37.0612962], [37.5056827, 37.059762], [37.5038105, 37.060447], [37.5028449, 37.0607851], [37.5014555, 37.0614059], [37.5003129, 37.0617526], [37.5000125, 37.0613716], [37.4994707, 37.0608322], [37.499916, 37.060554], [37.4997765, 37.0602244], [37.4983925, 37.059], [37.4985105, 37.0588673], [37.4981564, 37.0585377], [37.4987411, 37.0581481], [37.4990416, 37.0584264], [37.4995995, 37.05778], [37.498666, 37.0570651], [37.4973947, 37.056363], [37.5009137, 37.0553141], [37.500667, 37.0547148], [37.4988753, 37.055023], [37.497223, 37.0553269], [37.4959302, 37.0555496], [37.494927, 37.0559391], [37.4933714, 37.0560248], [37.4923843, 37.0556994], [37.4911183, 37.055297], [37.4902654, 37.0548689], [37.4900508, 37.0546634], [37.4897879, 37.0543038], [37.4893105, 37.0533705], [37.4881518, 37.0525014], [37.4873042, 37.0521332], [37.4876958, 37.051187], [37.4867409, 37.0511742], [37.4859524, 37.050472], [37.4857914, 37.0504892], [37.4844825, 37.0504635], [37.4844181, 37.0506561], [37.4828249, 37.050746], [37.4819612, 37.0507546], [37.4817145, 37.0508359], [37.480545, 37.0508702], [37.4805611, 37.0499711], [37.47841, 37.0500054], [37.47841, 37.0494102], [37.4772137, 37.0494317], [37.4770045, 37.0490121], [37.4765754, 37.0477918], [37.4764788, 37.0474279], [37.4766988, 37.0473551], [37.4766773, 37.0471796], [37.4768221, 37.0471496], [37.4767953, 37.0470212], [37.4769026, 37.0469013], [37.4770635, 37.0468328], [37.4770743, 37.046653], [37.4770904, 37.0466016], [37.4772137, 37.0464945], [37.4773478, 37.0463661], [37.4774229, 37.0462034], [37.4775302, 37.0459765], [37.4775624, 37.045818], [37.4772459, 37.0458908], [37.4769723, 37.0455269], [37.4766695, 37.0454122], [37.4759745, 37.0452357], [37.4758565, 37.0449275], [37.474494, 37.044799], [37.4743652, 37.0448504], [37.4740219, 37.0448076], [37.4740004, 37.0449103], [37.4737644, 37.0449703], [37.4728525, 37.0452786], [37.4711412, 37.0460193], [37.4710822, 37.0456939], [37.4706584, 37.0456168], [37.4706209, 37.0455012], [37.4705189, 37.0455269], [37.4704921, 37.0455868], [37.4694943, 37.0459465], [37.4680138, 37.046426], [37.4678743, 37.0465887], [37.4663132, 37.0474665], [37.465927, 37.0475606], [37.4655139, 37.0477105], [37.4653423, 37.0476634], [37.4653476, 37.0477276], [37.465015, 37.0477833], [37.4649507, 37.0477191], [37.4649239, 37.047368], [37.4648005, 37.0469912], [37.465015, 37.0469141], [37.4649399, 37.0464089], [37.4647683, 37.0464046], [37.4646127, 37.0450944], [37.4641406, 37.0450944], [37.4641353, 37.045437], [37.4639744, 37.0454156], [37.4632072, 37.0454455], [37.4631911, 37.0451587], [37.4630248, 37.0451715], [37.4630409, 37.0449746], [37.4617964, 37.0451244], [37.4618393, 37.0453299], [37.461496, 37.045407], [37.4611634, 37.0454755], [37.4607235, 37.0456254], [37.4599457, 37.0457538], [37.4599242, 37.045818], [37.4597955, 37.0458352], [37.4593663, 37.046015], [37.4585992, 37.046182], [37.4586046, 37.0462805], [37.4583417, 37.0464003], [37.4581325, 37.0464175], [37.4578321, 37.0464175], [37.4573559, 37.0464805], [37.4572849, 37.0460899], [37.4569952, 37.0460664], [37.457006, 37.0451587], [37.4559253, 37.0444937], [37.4561369, 37.0449018], [37.4559545, 37.0452957], [37.4564373, 37.0453984], [37.4560404, 37.0468884], [37.4560404, 37.0472138], [37.455064, 37.0477105], [37.4534225, 37.0479845], [37.452929, 37.0482414], [37.4506009, 37.0487381], [37.4507403, 37.0484812], [37.450794, 37.0482842], [37.4510193, 37.0480273], [37.4510944, 37.0474964], [37.4518776, 37.0467257], [37.4516362, 37.0463961], [37.4509442, 37.0466915], [37.4506062, 37.046426], [37.4505472, 37.0462719], [37.450676, 37.0461606], [37.4505901, 37.0457924], [37.4506652, 37.0456339], [37.4500751, 37.0450645], [37.4498498, 37.0455098], [37.4492061, 37.0458694], [37.4493475, 37.0463062], [37.4474359, 37.047445], [37.4473071, 37.0474536], [37.4469638, 37.0473337], [37.4465185, 37.047946], [37.4466312, 37.0483313], [37.4465185, 37.0483656], [37.4462184, 37.0483039], [37.4445969, 37.0479881], [37.4445191, 37.046323], [37.4409514, 37.0462668], [37.4400829, 37.0470636], [37.4398823, 37.0471098], [37.439414, 37.0471725], [37.4386648, 37.0474789], [37.4386162, 37.0473448], [37.4386729, 37.0471391], [37.4389061, 37.0470346], [37.4390405, 37.0468493], [37.4390479, 37.0466905], [37.4389762, 37.0465723], [37.4386722, 37.0464979], [37.43722, 37.0464972], [37.4365632, 37.0467784], [37.4362636, 37.0468622], [37.4339106, 37.0468162], [37.4328301, 37.0465217], [37.4311062, 37.0465656], [37.431169, 37.0457943], [37.4312175, 37.044506], [37.4309131, 37.0432154], [37.4280695, 37.0432591], [37.4267628, 37.0433361], [37.4261584, 37.0441288], [37.4263545, 37.0454931], [37.4254112, 37.0487582], [37.4251216, 37.0488551], [37.4241409, 37.0489222], [37.4240483, 37.049098], [37.424134, 37.0493212], [37.4250493, 37.0500518], [37.4246757, 37.050499], [37.4244889, 37.0508419], [37.4241059, 37.0510879], [37.4238538, 37.0516246], [37.4230879, 37.051893], [37.4224051, 37.0524336], [37.4219817, 37.0525724], [37.4218118, 37.0527327], [37.4218015, 37.0529709], [37.4213639, 37.053201], [37.4213485, 37.0534311], [37.4216007, 37.0537022], [37.4215601, 37.0537787], [37.4213453, 37.0538234], [37.4202618, 37.0540247], [37.4201311, 37.0541216], [37.4202712, 37.0545688], [37.4202058, 37.0549639], [37.4201031, 37.0552546], [37.4199163, 37.0555453], [37.4197855, 37.0560223], [37.4196454, 37.0562161], [37.4193932, 37.0563801], [37.4190763, 37.0568208], [37.4181966, 37.0580966], [37.4178425, 37.058225], [37.4171881, 37.0582935], [37.4168662, 37.0584134], [37.4160469, 37.0591207], [37.4157148, 37.0593264], [37.4146815, 37.0598487], [37.4142563, 37.0600749], [37.413778, 37.0602403], [37.4136706, 37.0603176], [37.4134306, 37.060542], [37.4121612, 37.0607289], [37.4116744, 37.0612108], [37.4113478, 37.0613436], [37.4111753, 37.0613829], [37.4109227, 37.0614026], [37.4098874, 37.0611174], [37.4092712, 37.0607535], [37.4090213, 37.0606629], [37.4088658, 37.0606103], [37.4081618, 37.0601904], [37.4073854, 37.0602199], [37.4071635, 37.0602494], [37.4068554, 37.0603232], [37.4063933, 37.0603527], [37.4063539, 37.0604177], [37.4063864, 37.0606221], [37.406344, 37.0607215], [37.405925, 37.0610067], [37.4054522, 37.0613879], [37.4038298, 37.061582], [37.4034724, 37.0618229], [37.4028994, 37.0619164], [37.4018148, 37.0624081], [37.4013342, 37.0625612], [37.4011432, 37.0627769], [37.4009706, 37.062831], [37.4004838, 37.0628408], [37.4001572, 37.0629539], [37.3982531, 37.0638242], [37.3978896, 37.0640357], [37.3970612, 37.0650808], [37.3964088, 37.0658919], [37.3960192, 37.066118], [37.3956441, 37.0663044], [37.3955237, 37.0663439], [37.3953928, 37.0663552], [37.3946814, 37.0663948], [37.3942782, 37.0665151], [37.3940693, 37.0665981], [37.3937247, 37.0667496], [37.3934097, 37.0669614], [37.3933566, 37.0670829], [37.3932823, 37.0672551], [37.3932752, 37.0673624], [37.393123, 37.0674867], [37.3929025, 37.0675561], [37.3926669, 37.0675981], [37.3924088, 37.0678301], [37.3923227, 37.0679266], [37.3918645, 37.068148], [37.3907802, 37.0686321], [37.3896745, 37.0689123], [37.3891327, 37.068968], [37.3885345, 37.0689187], [37.387353, 37.0688547], [37.3868716, 37.0687069], [37.3856378, 37.0687479], [37.3840968, 37.0683535], [37.3831594, 37.0680448], [37.3822515, 37.0677833], [37.3817939, 37.0673957], [37.381467, 37.0672057], [37.3800566, 37.0667399], [37.3782211, 37.0659085], [37.3781407, 37.0648619], [37.3769089, 37.0643254], [37.3745764, 37.0640354], [37.3735823, 37.0639248], [37.3725691, 37.0640809], [37.3720532, 37.064239], [37.3708814, 37.0647786], [37.3706366, 37.0648066], [37.3703422, 37.0647903], [37.3692375, 37.0643437], [37.3680774, 37.0639436], [37.3666132, 37.0635389], [37.366208, 37.0634086], [37.364975, 37.0632481], [37.3644445, 37.0629783], [37.3638499, 37.0627713], [37.362853, 37.0626922], [37.3625474, 37.0626437], [37.3625217, 37.0626526], [37.3620514, 37.0625759], [37.3618008, 37.0625992], [37.3616492, 37.0627062], [37.3614335, 37.0627597], [37.360833, 37.062762], [37.3599529, 37.0625638], [37.3596642, 37.0625783], [37.3595793, 37.0625959], [37.3590462, 37.0627062], [37.3583379, 37.0626969], [37.3571137, 37.0623689], [37.3567309, 37.0622687], [37.3560119, 37.0620805], [37.3557151, 37.0620994], [37.3508304, 37.06241], [37.3498706, 37.062471], [37.3497621, 37.0624985], [37.3492157, 37.0627115], [37.348385, 37.0627077], [37.347468, 37.0626502], [37.3465798, 37.0623743], [37.3463445, 37.0621828], [37.3460852, 37.062018], [37.3456723, 37.0619376], [37.3450769, 37.0617996], [37.3445488, 37.0617613], [37.343699, 37.0617536], [37.3427963, 37.0614701], [37.3407999, 37.0612135], [37.3391089, 37.0614901], [37.3378846, 37.0618235], [37.336353, 37.0622487], [37.3356616, 37.0623024], [37.3345381, 37.062628], [37.3334009, 37.0608045], [37.3311277, 37.0571595], [37.3297245, 37.0548158], [37.3290222, 37.0536485], [37.3283381, 37.052484], [37.325489, 37.0473147], [37.3236479, 37.0441096], [37.3227643, 37.0420589], [37.3211286, 37.0391694], [37.319897, 37.0371341], [37.3190554, 37.0361134], [37.3177228, 37.0347669], [37.3153224, 37.0322424], [37.3150662, 37.03191], [37.3135762, 37.0297549], [37.3120125, 37.0278084], [37.3110947, 37.026733], [37.3102958, 37.0267933], [37.3101207, 37.0289062], [37.309911, 37.0313792], [37.3098977, 37.0317392], [37.3098248, 37.0321977], [37.3098237, 37.0325433], [37.3097502, 37.0329236], [37.3096873, 37.033415], [37.3096633, 37.0339606], [37.3097022, 37.0355627], [37.3077817, 37.0404398], [37.3074218, 37.0426671], [37.3074452, 37.0457428], [37.3067063, 37.0492188], [37.3060291, 37.0516008], [37.305503, 37.0542012], [37.3041188, 37.0566471], [37.3038216, 37.0607085], [37.304901, 37.0626312], [37.3045017, 37.0626554], [37.30468, 37.0629017], [37.3043775, 37.0637132], [37.3041383, 37.0642231], [37.3041257, 37.0650181], [37.3041353, 37.0655251], [37.3040954, 37.0659496], [37.3040177, 37.0663775], [37.304002, 37.0674971], [37.3039698, 37.0681221], [37.3041287, 37.0683707], [37.3042568, 37.0686897], [37.3043882, 37.0691226], [37.3045408, 37.0696268], [37.3046422, 37.0698322], [37.304709, 37.0700785], [37.3049716, 37.0705309], [37.3052887, 37.0706989], [37.3058659, 37.0710279], [37.3060285, 37.0711207], [37.3063456, 37.0713482], [37.3066121, 37.0717056], [37.3071747, 37.0731472], [37.3072239, 37.0736831], [37.307157, 37.073862], [37.3072098, 37.0742605], [37.3070419, 37.0747543], [37.3067254, 37.0752558], [37.3066646, 37.0754444], [37.3067524, 37.0754854], [37.3075104, 37.0760361], [37.307741, 37.0765411], [37.3075747, 37.0770675], [37.3072314, 37.0781546], [37.3068613, 37.0784884], [37.3068774, 37.0786382], [37.3067647, 37.0788158], [37.3069096, 37.0789335], [37.3069256, 37.0791646], [37.3066413, 37.0800805], [37.3068237, 37.0806668], [37.3068935, 37.0806882], [37.3068881, 37.0808252], [37.3061263, 37.0824086], [37.3056757, 37.0835983], [37.3054075, 37.0858835], [37.3053539, 37.0860076], [37.3054182, 37.0860376], [37.305311, 37.0863115], [37.3050803, 37.0864912], [37.3047531, 37.0869534], [37.3044795, 37.0874883], [37.3040771, 37.0880232], [37.3037714, 37.0885239], [37.3036373, 37.088802], [37.3035524, 37.0894615], [37.3034256, 37.0897784], [37.303707, 37.0901927], [37.3039377, 37.090642], [37.3041844, 37.0927388], [37.3043668, 37.0932736], [37.3049247, 37.0940909], [37.30515, 37.0946258], [37.3052627, 37.0952205], [37.3053384, 37.0959215], [37.3052734, 37.0967154], [37.3052756, 37.0971185], [37.3053166, 37.0974385], [37.3052657, 37.0975524], [37.3052578, 37.097655], [37.305261, 37.097781], [37.3052685, 37.0978863], [37.3053111, 37.0980362], [37.3053683, 37.098266], [37.3051205, 37.0987715], [37.304978, 37.0991716], [37.3048519, 37.0994852], [37.3046384, 37.1000115], [37.3045317, 37.1002301], [37.3044151, 37.1013005], [37.3042779, 37.1020408], [37.3037494, 37.1025907], [37.3035953, 37.1026897], [37.3033768, 37.1027883], [37.3030642, 37.1030153], [37.3029724, 37.1031058], [37.3028476, 37.1032036], [37.3024682, 37.1033689], [37.30208, 37.1036169], [37.3015355, 37.1039496], [37.3012674, 37.1040662], [37.3011809, 37.1040942], [37.3011108, 37.1041006], [37.3010115, 37.104136], [37.3009501, 37.1041624], [37.3003624, 37.1044014], [37.3002007, 37.1044554], [37.3000879, 37.1044943], [37.3000046, 37.1045386], [37.2999304, 37.104591], [37.2998632, 37.1046371], [37.2997221, 37.1047281], [37.2996507, 37.1047724], [37.2995902, 37.1048169], [37.2990733, 37.1051073], [37.2980288, 37.1055041], [37.2977739, 37.105857], [37.2973931, 37.1062078], [37.2968674, 37.1065757], [37.2964811, 37.1068324], [37.2962236, 37.1071576], [37.2957408, 37.1074571], [37.2950542, 37.1077736], [37.2946143, 37.107979], [37.2944212, 37.1081416], [37.2941422, 37.1083897], [37.2936594, 37.1086207], [37.292608, 37.1090571], [37.2913635, 37.109656], [37.2904086, 37.110118], [37.2895396, 37.1095191], [37.288692, 37.1095362], [37.2877478, 37.1096645], [37.2871256, 37.1098014], [37.2872221, 37.10904], [37.2887456, 37.1081416], [37.2885954, 37.1078164], [37.2880804, 37.107979], [37.2867072, 37.1081672], [37.2863102, 37.1079105], [37.2859025, 37.1076795], [37.2848081, 37.1076025], [37.2841966, 37.1070549], [37.2837138, 37.1077822], [37.2830379, 37.1073116], [37.2824263, 37.1075854], [37.2819114, 37.1074485], [37.2812247, 37.1087747], [37.2797656, 37.1089116], [37.2785318, 37.1081843], [37.2788322, 37.1065672], [37.2779953, 37.1064388], [37.2772014, 37.1062506], [37.2770512, 37.1061051], [37.275576, 37.1058527], [37.2754526, 37.105596], [37.2748035, 37.1055704], [37.2747606, 37.1049586], [37.274251, 37.1047746], [37.2735482, 37.1048045], [37.2734088, 37.1053265], [37.2723412, 37.1053308], [37.2721481, 37.1055447], [37.2713113, 37.1054805], [37.271263, 37.1055661], [37.2705281, 37.1054591], [37.2705817, 37.1052409], [37.2696751, 37.105057], [37.2695249, 37.1052538], [37.2690904, 37.1051639], [37.2693962, 37.1047746], [37.2690314, 37.1046676], [37.26879, 37.1048644], [37.2680819, 37.1048217], [37.267288, 37.1054292], [37.2671378, 37.1053778], [37.2673523, 37.1050185], [37.2665584, 37.1051554], [37.2664618, 37.1050955], [37.2662902, 37.1050099], [37.2660541, 37.1050356], [37.2657859, 37.1051725], [37.2655606, 37.1054292], [37.2653675, 37.1058741], [37.2649705, 37.1058912], [37.2646697, 37.106287], [37.2646272, 37.1065586], [37.2643214, 37.1071148], [37.264249, 37.1073907], [37.2642383, 37.1075619], [37.2642839, 37.1077907], [37.2639379, 37.1078164], [37.2639728, 37.1082014], [37.2639459, 37.1083383], [37.2638977, 37.1083982], [37.2636187, 37.1086464], [37.2635597, 37.1086934], [37.2627604, 37.1088218], [37.2624707, 37.1089159], [37.2620845, 37.1085522], [37.2612047, 37.1097929], [37.2601962, 37.1105971], [37.2600728, 37.1109736], [37.2599387, 37.1110463], [37.2599977, 37.111795], [37.2603947, 37.1121458], [37.2600621, 37.1126078], [37.2599977, 37.1129329], [37.2600996, 37.1130184], [37.2597295, 37.1135189], [37.2600031, 37.1136901], [37.2595954, 37.1141692], [37.2593594, 37.1143788], [37.2592145, 37.1142932], [37.2589141, 37.1147723], [37.2588551, 37.1143275], [37.2586405, 37.113827], [37.2576427, 37.1138911], [37.2576749, 37.1140665], [37.2569883, 37.1142034], [37.2568649, 37.113181], [37.254923, 37.1129757], [37.2549605, 37.1133821], [37.2549605, 37.1137157], [37.2541773, 37.1137799], [37.2540593, 37.1146397], [37.2533995, 37.1145927], [37.2529864, 37.1146098], [37.2525305, 37.1146098], [37.2518492, 37.1146654], [37.251876, 37.115491], [37.2483784, 37.1156108], [37.2487378, 37.1171037], [37.2462702, 37.1174159], [37.2443336, 37.1177539], [37.2443122, 37.1178223], [37.2429496, 37.1181217], [37.2427994, 37.1181645], [37.2426224, 37.1182415], [37.2424453, 37.1183869], [37.242322, 37.1185238], [37.2422522, 37.1186265], [37.2421557, 37.1187676], [37.2420001, 37.118943], [37.2417694, 37.1191269], [37.241528, 37.1192638], [37.2412115, 37.1194093], [37.2410667, 37.1194777], [37.2407609, 37.119636], [37.2405088, 37.1198242], [37.240364, 37.1200124], [37.240085, 37.1200937], [37.2398543, 37.1201835], [37.2396398, 37.1202733], [37.2394252, 37.1203332], [37.2393018, 37.120346], [37.2391301, 37.1203289], [37.2390068, 37.120269], [37.2388887, 37.120192], [37.2387814, 37.120115], [37.2385776, 37.1200081], [37.2384918, 37.1199354], [37.2378802, 37.1195076], [37.2375262, 37.1193109], [37.2372633, 37.1192211], [37.2370648, 37.1192296], [37.2368503, 37.1192596], [37.2366518, 37.1192767], [37.236169, 37.1192895], [37.2355574, 37.1193365], [37.2352517, 37.1193408], [37.2350961, 37.1193879], [37.2349191, 37.1193579], [37.2346777, 37.1194135], [37.2344953, 37.1194007], [37.2342914, 37.119529], [37.2340286, 37.1196531], [37.2338033, 37.1198456], [37.233578, 37.1199183], [37.2332615, 37.1200081], [37.2328645, 37.1200423], [37.2324729, 37.1201022], [37.2323817, 37.1201407], [37.2323066, 37.1202134], [37.232269, 37.120299], [37.2321403, 37.1203888], [37.2319847, 37.1204444], [37.2317916, 37.1204829], [37.2315663, 37.1205642], [37.2314161, 37.1206797], [37.2311103, 37.120932], [37.2307938, 37.1210817], [37.2305846, 37.1211972], [37.2304398, 37.1215052], [37.2302359, 37.1220613], [37.2303218, 37.1225275], [37.2301769, 37.122613], [37.2300643, 37.1225275], [37.2299302, 37.1225104], [37.2298336, 37.1224847], [37.2297049, 37.1225232], [37.2292757, 37.1226387], [37.2288734, 37.1227756], [37.2281921, 37.1228697], [37.2278809, 37.1229253], [37.2277629, 37.1231391], [37.2275805, 37.1234599], [37.2274196, 37.1237166], [37.2273499, 37.1238748], [37.2273499, 37.1239561], [37.2267061, 37.1241058], [37.2260463, 37.1239689], [37.2259498, 37.1236481], [37.2259498, 37.1232931], [37.2258639, 37.1231434], [37.2256708, 37.1228526], [37.225526, 37.1227328], [37.2253168, 37.1226472], [37.2247642, 37.1224975], [37.2245067, 37.1224377], [37.2242063, 37.1224248], [37.2238898, 37.1230579], [37.2234285, 37.1234899], [37.2231549, 37.1240202], [37.2229242, 37.1241143], [37.2218782, 37.1252606], [37.2215456, 37.1255001], [37.2211432, 37.1262144], [37.2210735, 37.1263], [37.2208804, 37.1262187], [37.2207195, 37.1262101], [37.2206229, 37.1262101], [37.2205532, 37.1262401], [37.2204673, 37.1263256], [37.2202581, 37.1265823], [37.2201669, 37.1266635], [37.220065, 37.1266421], [37.2199148, 37.1265438], [37.2198182, 37.1264625], [37.2198129, 37.1263727], [37.2198611, 37.1262957], [37.2198343, 37.1262273], [37.2197485, 37.1261973], [37.2195017, 37.1262016], [37.2194213, 37.1261973], [37.2192925, 37.1261545], [37.2192281, 37.1260562], [37.2191906, 37.1259364], [37.2191906, 37.1258167], [37.219153, 37.1257226], [37.2190833, 37.1255985], [37.2189975, 37.1254788], [37.2188902, 37.1253889], [37.218799, 37.125436], [37.2186542, 37.1255344], [37.2184181, 37.1256242], [37.2182357, 37.1256926], [37.2181338, 37.1258167], [37.2179139, 37.1259321], [37.2176832, 37.1260989], [37.2172809, 37.1264069], [37.2169697, 37.1267491], [37.2174954, 37.1271682], [37.217356, 37.1275104], [37.2178817, 37.130701], [37.2128928, 37.1302562], [37.212292, 37.1294863], [37.2121364, 37.1293537], [37.2119084, 37.129296], [37.2116107, 37.1292853], [37.2115785, 37.1292661], [37.21149, 37.1291827], [37.2113612, 37.1291463], [37.2113317, 37.1289645], [37.2113129, 37.1288833], [37.2112942, 37.12874], [37.2112513, 37.128648], [37.2112244, 37.1285518], [37.2111949, 37.1284641], [37.2111493, 37.1283829], [37.2111064, 37.1283144], [37.2110581, 37.1282353], [37.211026, 37.1281776], [37.2110555, 37.128107], [37.211085, 37.12806], [37.2110796, 37.1280279], [37.2110206, 37.1280129], [37.2108731, 37.1280429], [37.2108462, 37.1280022], [37.2108757, 37.1279252], [37.2109348, 37.1279081], [37.2110474, 37.1278696], [37.2111225, 37.1278483], [37.2111708, 37.1277841], [37.2111869, 37.1277028], [37.2111869, 37.1275574], [37.2112083, 37.1274633], [37.2112834, 37.1273136], [37.2113371, 37.1271768], [37.2113371, 37.12698], [37.2113317, 37.1267918], [37.2108436, 37.1254659], [37.2106183, 37.1247046], [37.2105753, 37.1243261], [37.210578, 37.1239604], [37.2112405, 37.1237935], [37.211616, 37.1237551], [37.2127211, 37.1230878], [37.2129303, 37.1227413], [37.2128713, 37.1226216], [37.2128713, 37.122566], [37.2128928, 37.1224762], [37.2129196, 37.1224205], [37.2130108, 37.1222751], [37.2130215, 37.1221767], [37.2126836, 37.12195], [37.2120935, 37.1217533], [37.2112781, 37.1216121], [37.211439, 37.1210176], [37.2114336, 37.1206583], [37.2112888, 37.1201407], [37.2108328, 37.1200338], [37.2105807, 37.119867], [37.2102696, 37.1199568], [37.2095936, 37.1199867], [37.2090894, 37.119914], [37.2087246, 37.1198969], [37.208392, 37.1199012], [37.2078663, 37.1200937], [37.2075176, 37.1201493], [37.2072118, 37.1201664], [37.2069597, 37.1200851], [37.2067237, 37.1200081], [37.206493, 37.1199953], [37.206493, 37.119914], [37.2064662, 37.1198071], [37.2064286, 37.1196873], [37.2064447, 37.1196231], [37.2064662, 37.1195419], [37.2064662, 37.119482], [37.2064233, 37.1194264], [37.2063267, 37.119452], [37.2061926, 37.1194948], [37.20608, 37.1195333], [37.2059727, 37.1195248], [37.205565, 37.1193066], [37.2055864, 37.1191441], [37.2052538, 37.1191654], [37.2048247, 37.1191441], [37.2042185, 37.1190542], [37.2038859, 37.1189943], [37.2038162, 37.118943], [37.2032529, 37.117078], [37.2025662, 37.1170866], [37.2021103, 37.1148237], [37.2015309, 37.1140109], [37.2026735, 37.1141392], [37.2031295, 37.1142505], [37.2032797, 37.1144301], [37.2038415, 37.1143813], [37.2039235, 37.1133906], [37.2038752, 37.1128088], [37.203666, 37.1125736], [37.203505, 37.1123511], [37.2034407, 37.1118378], [37.2035479, 37.1114699], [37.2034192, 37.1109223], [37.2031617, 37.110657], [37.2031188, 37.1101009], [37.203226, 37.1095323], [37.2030759, 37.1088603], [37.2029257, 37.108441], [37.2026789, 37.1081159], [37.2023249, 37.1077565], [37.2022605, 37.107303], [37.2020996, 37.1071405], [37.2019708, 37.1070891], [37.2016919, 37.1070635], [37.20137, 37.1070549], [37.2011447, 37.107072], [37.2008657, 37.1071747], [37.200619, 37.1073287], [37.1999967, 37.1073544], [37.1999913, 37.1058099], [37.2001684, 37.105472], [37.200163, 37.1053479], [37.200163, 37.1051383], [37.2001415, 37.1049714], [37.2002113, 37.1043767], [37.2002596, 37.104197], [37.2002703, 37.1040473], [37.2001094, 37.1038376], [37.1997446, 37.1036366], [37.1995997, 37.1036793], [37.1994334, 37.1037863], [37.1992028, 37.1040943], [37.1989936, 37.1043596], [37.1985429, 37.1047061], [37.1979958, 37.105104], [37.1972394, 37.1057329], [37.1967781, 37.1056816], [37.1965742, 37.1055789], [37.1963489, 37.1054848], [37.196247, 37.1055361], [37.1962255, 37.1057201], [37.1960914, 37.1057073], [37.1959412, 37.1056859], [37.1956676, 37.1056131], [37.1951902, 37.1055875], [37.1950614, 37.1047746], [37.1941656, 37.1048473], [37.1940637, 37.104612], [37.1938169, 37.1043896], [37.1938062, 37.1042826], [37.1938491, 37.1040344], [37.192803, 37.1039446], [37.1930498, 37.1032986], [37.1928298, 37.1032472], [37.1926904, 37.1031018], [37.1927494, 37.1027082], [37.1926099, 37.1025156], [37.1924919, 37.1024129], [37.1922505, 37.1022632], [37.1920627, 37.1021263], [37.1919233, 37.1019081], [37.1917945, 37.1018867], [37.1916068, 37.1022675], [37.1907753, 37.1015658], [37.189697, 37.1009497], [37.1894503, 37.1017284], [37.1891338, 37.1016899], [37.1891123, 37.1024172], [37.1883988, 37.1023402], [37.1875673, 37.102383], [37.1871275, 37.101938], [37.186414, 37.1011593], [37.1855771, 37.1010224], [37.1854538, 37.1003764], [37.1844345, 37.1005261], [37.184, 37.1007657], [37.1837586, 37.1009497], [37.1835601, 37.1010609], [37.1833992, 37.1011294], [37.1833348, 37.1010866], [37.1833026, 37.1009796], [37.1832329, 37.1009026], [37.1831202, 37.1008599], [37.1829915, 37.1008213], [37.1825999, 37.100847], [37.181173, 37.1008513], [37.1806794, 37.1009069], [37.1805239, 37.1010267], [37.1802986, 37.1012278], [37.1800357, 37.1013348], [37.1796924, 37.1014118], [37.179392, 37.101476], [37.1790326, 37.1016343], [37.1788931, 37.1016343], [37.1790218, 37.1013134], [37.179054, 37.1010395], [37.1784854, 37.1010609], [37.1784049, 37.1007828], [37.1784371, 37.1003935], [37.1783459, 37.1001411], [37.178362, 37.09994], [37.1781796, 37.0996276], [37.1777129, 37.0994864], [37.1773642, 37.0994779], [37.1769619, 37.0994779], [37.1767205, 37.0994608], [37.1765917, 37.0999057], [37.1765488, 37.1003678], [37.1764898, 37.100924], [37.1760124, 37.1010695], [37.1758354, 37.1012192], [37.175433, 37.1014118], [37.1751058, 37.1016813], [37.1749663, 37.1018653], [37.1748698, 37.1019723], [37.1748, 37.102567], [37.1744513, 37.1029221], [37.1742421, 37.103213], [37.1740329, 37.1034697], [37.173931, 37.1035767], [37.1737862, 37.1037264], [37.1736306, 37.1039489], [37.1730244, 37.1036751], [37.1726811, 37.1035895], [37.1725309, 37.1033756], [37.1725738, 37.1031617], [37.1726918, 37.1030419], [37.1734482, 37.1024429], [37.1734536, 37.1022504], [37.1733141, 37.1019338], [37.1718281, 37.1025113], [37.1709967, 37.1029007], [37.1709537, 37.1030376], [37.1714365, 37.1035767], [37.1692586, 37.1048687], [37.1688294, 37.1051468], [37.1685934, 37.1053308], [37.1670055, 37.1048516], [37.1662438, 37.1045949], [37.1657556, 37.1044323], [37.1651924, 37.1042227], [37.1645272, 37.1039318], [37.1641248, 37.1037093], [37.1628588, 37.1032301], [37.1628374, 37.1034355], [37.163052, 37.1036665], [37.1633255, 37.1039403], [37.1634328, 37.104197], [37.1633899, 37.1043339], [37.1632826, 37.1044708], [37.1631753, 37.1047019], [37.1633577, 37.1049158], [37.1636689, 37.1050869], [37.1637976, 37.1051982], [37.1637761, 37.1056003], [37.1640229, 37.1060196], [37.1643555, 37.1063875], [37.1642697, 37.1068581], [37.1643877, 37.1071405], [37.1643877, 37.1075597], [37.1645272, 37.1077223], [37.1646559, 37.1078592], [37.164495, 37.1080988], [37.1641838, 37.1084068], [37.1643233, 37.108672], [37.164377, 37.1088688], [37.164377, 37.1091683], [37.1644199, 37.1093137], [37.1642697, 37.1097416], [37.1642482, 37.1099811], [37.164613, 37.1105116], [37.1645594, 37.110734], [37.1642053, 37.1110848], [37.163583, 37.1112731], [37.1631968, 37.1114014], [37.1627247, 37.1115554], [37.1622097, 37.1116067], [37.1621883, 37.1117094], [37.1623707, 37.1119746], [37.1620595, 37.1120944], [37.1615553, 37.1109822], [37.1609008, 37.1110421], [37.1604931, 37.1111704], [37.1602249, 37.1115554], [37.160064, 37.112026], [37.1600425, 37.112488], [37.1601283, 37.1126206], [37.160064, 37.1127874], [37.1601766, 37.113027], [37.1602088, 37.1131254], [37.1601498, 37.1132537], [37.1599889, 37.1133863], [37.1599513, 37.1134933], [37.159946, 37.1136045], [37.1595383, 37.1136302], [37.1592003, 37.1137029], [37.1589053, 37.1139382], [37.1586156, 37.1139296], [37.1578914, 37.1140451], [37.1577144, 37.1141093], [37.1576714, 37.1141863], [37.1576071, 37.1145199], [37.1573871, 37.1146226], [37.1572691, 37.1146953], [37.1571082, 37.1148237], [37.1567917, 37.1146183], [37.1566629, 37.1145028], [37.1566307, 37.114105], [37.1565181, 37.1137457], [37.1564698, 37.1135318], [37.156325, 37.1131682], [37.1562391, 37.1130741], [37.1560085, 37.1132623], [37.1558636, 37.1133692], [37.1554774, 37.1135746], [37.1546406, 37.1127318], [37.1541899, 37.1131553], [37.1539646, 37.1132666], [37.153632, 37.1134676], [37.1532565, 37.1136815], [37.1527952, 37.1138911], [37.1529829, 37.114259], [37.1529829, 37.1144943], [37.1528059, 37.114875], [37.1526825, 37.1149948], [37.1526718, 37.1152215], [37.1537179, 37.1146953], [37.1541953, 37.1150504], [37.1543187, 37.1152686], [37.1540666, 37.1153883], [37.1537232, 37.1156664], [37.1533531, 37.1158974], [37.1530849, 37.1160428], [37.1528435, 37.1161754], [37.1526074, 37.116231], [37.1523714, 37.116261], [37.1521729, 37.1161754], [37.1519852, 37.1160556], [37.151894, 37.1159701], [37.1513843, 37.1160642], [37.1514004, 37.115645], [37.1513092, 37.1155851], [37.1500111, 37.1152771], [37.1497965, 37.115923], [37.1497214, 37.1159915], [37.1493941, 37.1159273], [37.149142, 37.1157733], [37.1489811, 37.115722], [37.1486163, 37.1156749], [37.1484876, 37.1161155], [37.1484876, 37.1162353], [37.1469372, 37.1157562], [37.1469212, 37.1150504], [37.1469641, 37.1141521], [37.1469533, 37.1139082], [37.1470928, 37.1133735], [37.1472806, 37.1129586], [37.1472806, 37.1127404], [37.1469212, 37.1124067], [37.1466851, 37.1124024], [37.1461433, 37.1126249], [37.1457571, 37.1128345], [37.1453494, 37.1131767], [37.1449685, 37.1134676], [37.1447968, 37.1134163], [37.1446252, 37.1134419], [37.1445608, 37.1134762], [37.1443891, 37.1136601], [37.1439332, 37.1133735], [37.143724, 37.1136045], [37.1435469, 37.1143317], [37.1435469, 37.1147894], [37.1434611, 37.1150418], [37.1433324, 37.1154012], [37.143268, 37.115692], [37.143268, 37.115799], [37.1434343, 37.1159915], [37.1434396, 37.1161797], [37.1432948, 37.1163337], [37.1431661, 37.116462], [37.1430319, 37.1164962], [37.1428496, 37.1165219], [37.1427476, 37.1164406], [37.1427101, 37.1163337], [37.1427101, 37.1161198], [37.1428013, 37.1158332], [37.1427476, 37.1157477], [37.1423668, 37.1153755], [37.141723, 37.1148408], [37.1418357, 37.1145499], [37.1418035, 37.1139253], [37.141546, 37.1134505], [37.1416157, 37.1133008], [37.141782, 37.1128559], [37.1417445, 37.1125179], [37.1415996, 37.1123597], [37.1411276, 37.112073], [37.1410686, 37.1119875], [37.1411759, 37.1116966], [37.1408057, 37.1111875], [37.1402585, 37.1107169], [37.1404087, 37.1101779], [37.1403444, 37.1099726], [37.1400761, 37.1096218], [37.1396363, 37.1091683], [37.1393466, 37.1089116], [37.1392393, 37.1088346], [37.1391642, 37.1084838], [37.1389925, 37.1079362], [37.1387029, 37.1073202], [37.1384561, 37.1070463], [37.1383488, 37.106456], [37.1381128, 37.1056174], [37.1379733, 37.1052495], [37.1377587, 37.1049842], [37.1379411, 37.1047532], [37.1380055, 37.1045906], [37.1378016, 37.1044109], [37.1374047, 37.104043], [37.1371257, 37.103812], [37.1369433, 37.1035809], [37.1368575, 37.1033927], [37.1368575, 37.1029477], [37.1365356, 37.1025113], [37.1361601, 37.1021348], [37.1357739, 37.1019808], [37.1354735, 37.1016984], [37.1351623, 37.1015016], [37.1348834, 37.1013305], [37.1347332, 37.1010481], [37.1346366, 37.1007315], [37.1344864, 37.1005005], [37.1342504, 37.1004234], [37.1339822, 37.1004577], [37.1337247, 37.0999785], [37.1336067, 37.0998672], [37.1330488, 37.0993367], [37.13292, 37.0990201], [37.1312785, 37.0969663], [37.1243852, 37.0981686], [37.1186077, 37.099234], [37.118082, 37.0993025], [37.1181357, 37.1002437], [37.117964, 37.1007486], [37.11761, 37.1014161], [37.1166015, 37.1016813], [37.1160972, 37.1019979], [37.1159577, 37.1024514], [37.1159685, 37.1026739], [37.1158183, 37.1029135], [37.1153247, 37.1031531], [37.1146488, 37.1034269], [37.1138227, 37.1036494], [37.1133292, 37.1040088], [37.1122992, 37.104274], [37.1117949, 37.1043425], [37.1112692, 37.1045136], [37.1106255, 37.1047104], [37.1095955, 37.1051383], [37.1092522, 37.1050955], [37.1089196, 37.1050099], [37.10819, 37.1049329], [37.1077716, 37.1048388], [37.1070635, 37.1047275], [37.1064091, 37.1047019], [37.1061516, 37.1047532], [37.105937, 37.1046933], [37.1057653, 37.1045136], [37.1051431, 37.1046334], [37.1046281, 37.1044195], [37.1041131, 37.1042484], [37.1039307, 37.1041885], [37.1036196, 37.1042997], [37.103287, 37.1042826], [37.1026969, 37.1040687], [37.1021712, 37.1037863], [37.1017313, 37.1037863], [37.1014416, 37.1039147], [37.1010876, 37.1040173], [37.1006369, 37.10412], [37.1002936, 37.1040944], [37.0998108, 37.1040173], [37.099328, 37.1038376], [37.0989096, 37.1036494], [37.0985985, 37.1034783], [37.0982981, 37.1034098], [37.0978475, 37.1036237], [37.0974934, 37.1037606], [37.0973647, 37.1036665], [37.097311, 37.1035125], [37.0970964, 37.1035125], [37.0968389, 37.1035125], [37.0965171, 37.1035895], [37.0961523, 37.1038034], [37.0957661, 37.1038975], [37.0951545, 37.1041714], [37.0948541, 37.1044965], [37.0944679, 37.1048046], [37.094264, 37.1050441], [37.0940065, 37.1052752], [37.0936417, 37.1054634], [37.0932555, 37.1057201], [37.0927191, 37.1060795], [37.0917427, 37.1065843], [37.0907342, 37.107226], [37.0901549, 37.1076453], [37.0898974, 37.108056], [37.0897686, 37.10821], [37.0893717, 37.1082442], [37.0887816, 37.1083469], [37.0884919, 37.1083982], [37.0883095, 37.108518], [37.0878804, 37.1086293], [37.0853331, 37.1085441], [37.0868611, 37.1107426], [37.0913887, 37.1176469], [37.0854342, 37.1238235], [37.0846295, 37.1247217], [37.0842218, 37.1252606], [37.084136, 37.12556], [37.0843613, 37.1260562], [37.0844686, 37.1264411], [37.0845759, 37.1268688], [37.0844901, 37.1271083], [37.0842647, 37.1273051], [37.0842862, 37.1275189], [37.0844042, 37.1278953], [37.0843613, 37.1286652], [37.0793831, 37.1328736], [37.0790613, 37.1332072], [37.0673346, 37.1321722], [37.0640302, 37.1294778], [37.0623457, 37.1289047], [37.0553183, 37.1268945], [37.0510375, 37.1262358], [37.0508659, 37.1263556], [37.050662, 37.1265438], [37.0503509, 37.1268175], [37.0502221, 37.1269287], [37.0496098, 37.1294313], [37.0492405, 37.1294008], [37.0489615, 37.129388], [37.048704, 37.1294222], [37.0476687, 37.1300167], [37.0463169, 37.1306668], [37.0451581, 37.1312997], [37.0424008, 37.1318044], [37.0409739, 37.1321123], [37.0397293, 37.1322748], [37.0394289, 37.1325913], [37.0392572, 37.132386], [37.0318544, 37.1300081], [37.0318027, 37.1298104], [37.0316583, 37.1298], [37.0306957, 37.1316419], [37.0296979, 37.1331558], [37.0284212, 37.1339085], [37.026447, 37.1343619], [37.0245802, 37.1346527], [37.0243657, 37.1350803], [37.0247197, 37.1359014], [37.0246553, 37.1370133], [37.0241725, 37.1390403], [37.0249021, 37.140118], [37.0266294, 37.1416831], [37.0269942, 37.1444369], [37.026962, 37.1461901], [37.0265758, 37.1481998], [37.0264578, 37.1509619], [37.0265758, 37.1529031], [37.0263183, 37.1540318], [37.026329, 37.1547843], [37.0265651, 37.1564774], [37.0265543, 37.1575034], [37.0270586, 37.1587005], [37.0267689, 37.1600857], [37.0271015, 37.1610091], [37.0262003, 37.1606586], [37.025637, 37.1606799], [37.0252937, 37.1608552], [37.0248002, 37.1607783], [37.0244998, 37.1605987], [37.0240653, 37.1599916], [37.0234215, 37.1600686], [37.0231801, 37.1601968], [37.0227617, 37.1601284], [37.0224291, 37.1602567], [37.0221823, 37.1605004], [37.0219999, 37.1605902], [37.0216459, 37.1605602], [37.0211202, 37.160432], [37.0209163, 37.1600985], [37.0204389, 37.159919], [37.0196128, 37.1605731], [37.0189851, 37.1607398], [37.0188779, 37.1608937], [37.0188671, 37.1610391], [37.0190281, 37.1613511], [37.0189851, 37.1615777], [37.0187652, 37.161629], [37.0184541, 37.161505], [37.0170218, 37.1610177], [37.0169198, 37.1607612], [37.0161152, 37.1605132], [37.016083, 37.1609535], [37.0158201, 37.1612998], [37.0147633, 37.1610562], [37.0144737, 37.1606757], [37.014479, 37.1604063], [37.0141625, 37.1599361], [37.0128483, 37.1596282], [37.0125747, 37.159594], [37.0121884, 37.1597693], [37.0114267, 37.1602952], [37.0110136, 37.1603764], [37.0108259, 37.1607227], [37.0109278, 37.1612827], [37.0107561, 37.1614238], [37.0103806, 37.1615948], [37.0100051, 37.1618641], [37.0098174, 37.1622831], [37.0108044, 37.1630184], [37.0109653, 37.1633048], [37.01096, 37.1638606], [37.0110673, 37.1639974], [37.0111799, 37.1645488], [37.0108634, 37.1645617], [37.0105737, 37.1646899], [37.0103431, 37.1648011], [37.0099783, 37.1648481], [37.0098925, 37.1644847], [37.0097798, 37.1643864], [37.0094687, 37.1644719], [37.0094848, 37.1645702], [37.0093828, 37.1646685], [37.0091468, 37.1646728], [37.0088732, 37.1647968], [37.0085192, 37.1648994], [37.0083368, 37.1649806], [37.0080578, 37.1650191], [37.0078325, 37.1652799], [37.0073712, 37.1658783], [37.0095277, 37.1673019], [37.0097959, 37.1674814], [37.0096028, 37.170277], [37.0095277, 37.1708242], [37.0085835, 37.1719954], [37.005837, 37.1734744], [37.0045173, 37.1737479]]]]}}]}